category,name,address,lat,lng
화장실,1호선 동작역,서울특별시 동작구 현충로 지하220 (공중화장실),37.51085349,126.9295878
화장실,2호선 강남역,서울특별시 강남구 강남대로 지하396 (공중화장실),37.52643082,127.0284809
화장실,2호선 사당역,서울특별시 동작구 사당동 1129 (공중화장실),37.50689755,126.9357837
화장실,2호선 삼성역,서울특별시 강남구 테헤란로 538 (공중화장실),37.50450288,127.0489425
화장실,2호선 선릉역,서울특별시 강남구 테헤란로 지하340 (공중화장실),37.50071627,127.0366182
화장실,2호선 신대방역,서울특별시 동작구 신대방동 643-1 (공중화장실),37.48229315,126.9623845
화장실,2호선 역삼역,서울특별시 강남구 테헤란로 지하156 (공중화장실),37.49816465,127.0283079
화장실,3호선 대청역,서울특별시 강남구 일원로 지하2 (공중화장실),37.48407358,127.0844518
화장실,3호선 대치역,서울특별시 강남구 남부순환로 지하2952 (공중화장실),37.49671719,127.071719
화장실,3호선 도곡역,서울특별시 강남구 남부순환로 지하2814 (공중화장실),37.49456276,127.0634302
화장실,3호선 매봉역,서울특별시 강남구 남부순환로 지하2744 (공중화장실),37.49086477,127.0553234
화장실,3호선 수서역,서울특별시 강남구 광평로 지하270 (공중화장실),37.51944066,127.0536445
화장실,3호선 신사역,서울특별시 강남구 도산대로 지하102 (공중화장실),37.48696113,127.0466146
화장실,3호선 압구정역,서울특별시 강남구 압구정로 지하172 (공중화장실),37.51643246,127.0203269
화장실,3호선 일원역,서울특별시 강남구 일원로 지하121 (공중화장실),37.48738899,127.1018592
화장실,3호선 학여울역,서울특별시 강남구 남부순환로 지하3104 (공중화장실),37.49372186,127.0794936
화장실,4호선 동작역,서울특별시 동작구 동작동 327-1 (공중화장실),37.50039046,126.9291097
화장실,4호선 사당역,서울특별시 동작구 사당동 588-4 (공중화장실),37.51160429,126.9572197
화장실,4호선 총신대입구역,서울특별시 동작구 사당동 736-1 (공중화장실),37.47701714,126.9798517
화장실,7호선 강남구청역,서울특별시 강남구 학동로 지하346 (공중화장실),37.51420643,127.0314638
화장실,7호선 남성역,서울특별시 동작구 사당동 산 25-33 (공중화장실),37.50512021,126.960611
화장실,7호선 논현역 지하철역,서울특별시 강남구 강남대로 492-2 (공중화장실),37.49816465,127.0283079
화장실,7호선 상도역,서울특별시 동작구 상도1동 702-1 (공중화장실),37.48408142,126.9673507
화장실,7호선 숭실대입구역,서울특별시 동작구 상도동 514 (공중화장실),37.49788488,126.9474555
화장실,7호선 장승배기역,서울특별시 동작구 상도동 26-20 (공중화장실),37.49876442,126.9398407
화장실,7호선 청담역,서울특별시 강남구 학동로 지하508 (공중화장실),37.51718924,127.0413014
화장실,7호선 학동역,서울특별시 강남구 학동로 지하180 (공중화장실),37.50605274,127.0239869
화장실,감람교회,서울특별시 논현로85길 71 (개방화장실),37.4943841,127.0350787
화장실,강남 경찰서,서울특별시 강남구 테헤란로 114길11 (공중화장실),37.52934732,127.0356144
화장실,강남관광정보센터,서울특별시 강남구 압구정로 161 (공중화장실),37.49567866,127.071912
화장실,강남구민체육관,서울특별시 강남구 개포로28길 47 (공중화장실),37.52729714,127.0357558
화장실,강남구민회관,서울특별시 강남구 삼성로 154 (공중화장실),37.51520381,127.0338464
화장실,강남구보건소,서울특별시 강남구 선릉로 668 (공중화장실),37.51490744,127.0605459
화장실,강남구비즈니스센터,서울특별시 봉은사로 320 (공중화장실),37.48868793,127.0668453
화장실,강남구청,서울특별시 강남구 학동로 426 (공중화장실),37.50831589,127.0410179
화장실,강남동산교회,서울특별시 개포로 257 (개방화장실),37.47857819,127.0554838
화장실,강남메이저의원(구 미즈메디병원),서울특별시 도곡로 452 (개방화장실),37.49923554,127.0484209
화장실,강남복지충전소,서울특별시 밤고개로 200 (개방화장실),37.52582959,127.0265264
화장실,강남블루지움,서울특별시 밤고개로 219 (개방화장실),37.51886584,127.0252247
화장실,강남소방서,서울특별시 강남구 테헤란로 629 (공중화장실),37.4919833,127.0734674
화장실,강남수도사업소,서울특별시 강남구 양재천로 199 (공중화장실),37.51909871,127.0464409
화장실,강남스포츠문화센터,서울특별시 강남구 밤고개로1길 52 (공중화장실),37.49995494,127.0669768
화장실,강남시니어플라자 공중화장실,서울특별시 강남구 봉은사로 332 (공중화장실),37.4997615,127.078659
화장실,강남역 서희스타힐스,서울특별시 도곡로3길 19 (개방화장실),37.49105702,127.0326541
화장실,강남역 지하상가1,서울특별시 강남대로 지하396 (공중화장실),37.50944163,127.0419504
화장실,강남역 지하상가2,서울특별시 강남대로 지하396 (공중화장실),37.48541081,127.0547048
화장실,강남우체국,서울특별시 강남구 개포로 619 (공중화장실),37.49537321,127.0332838
화장실,강남운전면허시험장,서울특별시 강남구 테헤란로114길 23 (공중화장실),37.52353939,127.0381722
화장실,강남웰에이징센터 공영노외주차장,서울특별시 선릉로108길 27 (공중화장실),37.51027919,127.0668302
화장실,강남장애인복지관,서울특별시 강남구 개포로 605 (공중화장실),37.48414282,127.0653498
화장실,강남제일교회,서울특별시 헌릉로637길 12 (개방화장실),37.48802449,127.1018445
화장실,강남푸르지오시티1차,서울특별시 자곡로 191 (개방화장실),37.52474117,127.019644
화장실,강남푸르지오시티2차,서울특별시 자곡로 192 (개방화장실),37.52403797,127.0287309
화장실,강남프라자,서울특별시 언주로314 (개방화장실),37.48548535,127.0866017
화장실,개나리 주유소,서울특별시 언주로 423 (개방화장실),37.49416584,127.045509
화장실,개암약수터,서울특별시 강남구 개포동 산53-40 (공중화장실),37.47754924,127.0753337
화장실,개포119안전센터,서울특별시 강남구 논현로10길 19 (공중화장실),37.49324481,127.056775
화장실,개포4동주민센터,서울특별시 강남구 개포로38길 12 (공중화장실),37.51129185,127.0480753
화장실,개포7단지상가,서울특별시 개포로 516 (개방화장실),37.48914183,127.0675212
화장실,개포근린공원,서울특별시 강남구 개포동 139 (공중화장실),37.48742245,127.1063229
화장실,개포빌딩,서울특별시 삼성로 38 (개방화장실),37.48358634,127.0519555
화장실,개포우성3차(아) 상가,서울특별시 개포로 307 (개방화장실),37.48855829,127.0674438
화장실,개포우성6차(아) 상가,서울특별시 언주로 3 (개방화장실),37.47921186,127.0498447
화장실,개포자이르네이마트,서울특별시 언주로7길6 (개방화장실),37.51051524,127.0235361
화장실,개포주유소,서울특별시 양재대로 339 (개방화장실),37.47953691,127.0501412
화장실,개포파출소,서울특별시 강남구 개포로261 (공중화장실),37.47711586,127.0518861
화장실,거묵프리미엄상가,서울 동작구 사당로 196 (개방화장실),37.49226043,126.90996
화장실,견인보관소,서울특별시 강남구 역삼로107길 20-28 (공중화장실),37.51206542,127.026089
화장실,경남1차상가,서울특별시 언주로 110 (개방화장실),37.48875487,127.067333
화장실,경남2차상가,서울특별시 언주로110 (개방화장실),37.48890601,127.066625
화장실,경남상가,서울특별시 언주로85길 13 (개방화장실),37.49338496,127.0430425
화장실,공무원연금관리공단,서울특별시 강남구 언주로 508 (공중화장실),37.47882022,127.0516588
화장실,광동한방병원,서울특별시 봉은사로 612 (개방화장실),37.50991552,127.0651152
화장실,광연자동차 운전전문학원,서울특별시 헌릉로733 (개방화장실),37.47487015,127.1035756
화장실,광택 선팅 전문,서울특별시 논현로79길 20 (개방화장실),37.49476312,127.0352132
화장실,구룡천약수터,서울특별시 강남구 개포동 산 53-28 (공중화장실),37.48426977,127.0502388
화장실,구정빌딩,서울특별시 논현로 868 (개방화장실),37.52608537,127.0288851
화장실,국립서울현충원 만남의집,서울특별시 동작구 현충로 210 (공중화장실),37.49927303,126.9203365
화장실,국립서울현충원 민원안내실,서울특별시 동작구 현충로 210 (공중화장실),37.4996534,126.9277066
화장실,국립서울현충원 봉안식장,서울특별시 동작구 현충로 210 (공중화장실),37.50523582,126.9464331
화장실,국립서울현충원 충혼당,서울특별시 동작구 현충로 210 (공중화장실),37.49241456,126.9154005
화장실,국민건강보험공단 강남북부지사,서울특별시 강남구 압구정로 38길 7 (공중화장실),37.48698084,127.106951
화장실,국민연금공단,서울특별시 강남구 도산대로 128 (공중화장실),37.5103126,127.0463796
화장실,국사봉 공중화장실,서울 동작구 상도동 산65-49 (공중화장실),37.48708383,126.9056392
화장실,그랑프리엔,서울특별시 남부순환로 2912 (개방화장실),37.49349436,127.059773
화장실,극동교회,서울특별시 삼성로 150 (개방화장실),37.50524179,127.0643458
화장실,극동스포츠빌딩,서울특별시 압구정로 152 (개방화장실),37.50686323,126.9681627
화장실,글라스타워,서울특별시 테헤란로 534 (개방화장실),37.50658411,127.0653266
화장실,금강쇼핑센터,서울특별시 압구정로 201 (개방화장실),37.50157849,127.0361572
화장실,금성주유소,서울 동작구 사당로 59 (개방화장실),37.51275771,126.9340267
화장실,금하빌딩,서울특별시 학동로 401 (개방화장실),37.47892406,127.0467833
화장실,기독교TV멀티미디어센터,서울 동작구 노량진로 100 (개방화장실),37.50794784,126.9393373
화장실,기아오토큐 대치점,서울특별시 역삼로 559 (개방화장실),37.50268254,127.0671619
화장실,까치마을 상가,서울특별시 광평로19길 10 (개방화장실),37.49575209,127.0750962
화장실,나누리병원,서울특별시 언주로 731 (개방화장실),37.50994254,127.0366781
화장실,남강빌딩,서울특별시 개포로 251 (개방화장실),37.47821871,127.0475736
화장실,남서울가스,서울특별시 남부순환로 3154 (개방화장실),37.46999216,127.1094825
화장실,남서울종합시장,서울특별시 남부순환로2921 (개방화장실),37.49242937,127.057956
화장실,남성주유소,서울 동작구 동작대로 135 (개방화장실),37.50603801,126.9604218
화장실,남일교회,서울 동작구 동작대로27길 57 (개방화장실),37.50714172,126.9402413
화장실,노들나루공원,서울특별시 동작구 노량진로 247 (공중화장실),37.48307246,126.9787728
화장실,노들나루공원 간이공중화장실,서울특별시 동작구 노량진로 247 (공중화장실),37.505777,126.9665927
화장실,노들역,서울특별시 동작구 노량진로 지하238 (공중화장실),37.49243585,126.9433231
화장실,노량진1동 청소년독서실,서울특별시 동작구 만양로3길 8 (공중화장실),37.50908532,126.9635701
화장실,노량진1동주민센터,서울특별시 동작구 장승배기로28길30 (공중화장실),37.48837476,126.9775878
화장실,노량진2동 주민센터,서울특별시 동작구 장승배기로19길 48 (공중화장실),37.47888804,126.9732442
화장실,노량진역,서울특별시 동작구 노량진로 지하130 (공중화장실),37.49981478,126.9351916
화장실,논현1파출소,서울특별시 강남구 학동로169 (공중화장실),37.491961,127.0570953
화장실,논현1호 주차장,서울특별시 학동로6길 19 (개방화장실),37.51938164,127.0351975
화장실,논현2문화센터,서울특별시 강남구 학동로 43길 17 (공중화장실),37.4902651,127.0462081
화장실,논현2파출소,서울특별시 강남구 학동로227 (공중화장실),37.50133276,127.0437177
화장실,논현2호 주차장,서울특별시 학동로20길 13 (개방화장실),37.51322027,127.0315009
화장실,논현노인종합복지관,서울특별시 강남구 강남대로128길 59 (공중화장실),37.47149609,127.0944958
화장실,논현동우체국,서울특별시 강남구 학동로 212 (공중화장실),37.49597383,127.046815
화장실,논현아파트 상가,서울특별시 강남대로146길 28 (개방화장실),37.5135684,127.0305413
화장실,논현초교 공영노외주차장,서울특별시 강남대로120길 33 (공중화장실),37.52835357,127.032639
화장실,농협중앙회 도곡동지점,서울특별시 도곡로 194 (개방화장실),37.49145068,127.0388577
화장실,늘벗근린공원,서울특별시 강남구 대치동501 (공중화장실),37.5066041,127.0586651
화장실,늘사랑교회,서울특별시 강남대로146길 28 (개방화장실),37.51006071,127.02296
화장실,늘푸린근린공원,서울특별시 강남구 일원동690 (공중화장실),37.50759108,127.0605794
화장실,다봉타워빌딩,서울특별시 테헤란로 418 (개방화장실),37.50622166,127.0530599
화장실,다울작은도서관,서울 동작구 사당로20길 132 (공중화장실),37.51367846,126.9469281
화장실,달마사 공중화장실,서울 동작구 흑석동 산60-8 (공중화장실),37.49936382,126.9287633
화장실,대가,서울특별시 개포로 20길 26 (개방화장실),37.51853332,127.0282444
화장실,대건빌딩 하나이비인후과,서울특별시 역삼로 245 (개방화장실),37.48482911,127.0933962
화장실,대룡약수터,서울특별시 강남구 개포동 118-21 (공중화장실),37.48208048,127.0476812
화장실,대모산숲속야생화원,서울특별시 강남구 일원동 246-13 (공중화장실),37.50171667,127.0714557
화장실,대방동주민센터,서울특별시 동작구 여의대방로44길 20 (공중화장실),37.49809874,126.9384135
화장실,대방어린이도서관,서울특별시 동작구 대방동길 55 (공중화장실),37.50875924,126.9542438
화장실,대방종합사회복지관,서울특별시 동작구 여의대방로44길 47 (공중화장실),37.49923818,126.9608836
화장실,대방주유소,서울 동작구 여의대방로 214 (개방화장실),37.50985709,126.9249542
화장실,대신증권,서울특별시 강남대로 292 (개방화장실),37.48900387,127.032417
화장실,대왕파출소,서울특별시 강남구 헌릉로 623 (공중화장실),37.49413139,127.0787831
화장실,대진근린공원,서울특별시 강남구 개포동 13-1 (공중화장실),37.50684382,127.0594632
화장실,대청근린공원,서울특별시 강남구 일원동621 (공중화장실),37.50608976,127.0589431
화장실,대청역 공영노외주차장,서울특별시 개포로623-1 (공중화장실),37.47470048,127.049895
화장실,대청타워,서울특별시 개포로 623 (개방화장실),37.52290504,127.0564944
화장실,대청프라자,서울특별시 개포로109길 34 (개방화장실),37.52047964,127.0575761
화장실,대치1문화센터,서울특별시 강남구 남부순환로 391길 19 (공중화장실),37.49098251,127.0437691
화장실,대치2단지상가,서울특별시 개포동 12 (개방화장실),37.52509008,127.0513
화장실,대치3차 아이파크,서울특별시 영동대로85길 20 (개방화장실),37.5000488,127.0671843
화장실,대치4문화센터,서울특별시 강남구 도곡로 77길 23 (공중화장실),37.48261328,127.066134
화장실,대치노인복지센터,서울특별시 강남구 역삼로69길 22 (공중화장실),37.50325469,127.0353794
화장실,대치동교회,서울특별시 역삼로84길 8 (개방화장실),37.50509794,127.0522228
화장실,대치삼성(아) 상가,서울특별시 도곡로78길 22 (개방화장실),37.49791957,127.042974
화장실,대치지구대,서울특별시 강남구 남부순환로 2907 (공중화장실),37.49215148,127.0736788
화장실,대치클래시아,서울특별시 남부순환로 2927 (개방화장실),37.49218231,127.0574107
화장실,대치퍼스트빌딩,서울특별시 삼성로155 (개방화장실),37.49305153,127.0582983
화장실,대치평생학습관,서울특별시 강남구 영동대로 57길 7 (공중화장실),37.50495626,127.068203
화장실,대치풍림빌딩,서울특별시 남부순환로 2942 (개방화장실),37.49275219,127.0585294
화장실,대한민국,서울특별시 영동대로85길17-5 (개방화장실),37.50335325,127.0498758
화장실,덕명빌딩,서울특별시 테헤란로 625 (개방화장실),37.51350826,127.042865
화장실,덕산빌딩,서울특별시 압구정로 108 (개방화장실),37.49347189,126.9564351
화장실,덕우빌딩,서울특별시 선릉로94길 7 (개방화장실),37.48912761,127.1048132
화장실,도곡근린공원 화장실,서울특별시 도곡동 산31-3 (공중화장실),37.48970641,127.0682905
화장실,도곡렉슬상가,서울특별시 선릉로 225 (개방화장실),37.49583915,127.0527361
화장실,도곡스타클래스,서울특별시 남부순환로 2615 (개방화장실),37.48541508,127.0433194
화장실,도곡지구대,서울특별시 강남구 언주로426 (공중화장실),37.48342575,127.0470805
화장실,도곡초교 공영노외주차장,서울특별시 선릉로64길 33 (공중화장실),37.48492685,127.0928417
화장실,도곡푸르지오102동,서울특별시 강남대로54길 6 (개방화장실),37.48525961,127.0344297
화장실,도림천 공중화장실,서울 동작구 신대방동 702-8 (공중화장실),37.4983605,126.951389
화장실,도산근린공원 공중화장실,서울특별시 강남구 신사동 649-9 (공중화장실),37.49569534,127.0685647
화장실,동광교회,서울 동작구 성대로1길 26 (개방화장실),37.47830883,126.9809585
화장실,동산빌딩 대아빌딩점,서울특별시 테헤란로 44길 5 (개방화장실),37.49974405,127.0349548
화장실,동산빌딩 동산빌딩점,서울특별시 테헤란로 70길 16 (개방화장실),37.50798547,127.0552236
화장실,동성빌딩 강산애,서울특별시 삼성로64길 51 (개방화장실),37.50440188,127.0532964
화장실,동신빌딩,서울특별시 테헤란로 409 (개방화장실),37.46764619,127.098754
화장실,동익아파트 상가,서울특별시 광평로39길 3 (개방화장실),37.47913575,126.9813459
화장실,동일석유 동주충전소,서울 동작구 상도로 74 (개방화장실),37.49699925,126.9300085
화장실,동일타워,서울특별시 테헤란로114길 38 (개방화장실),37.50536012,127.0503869
화장실,동작관악교육지원청,서울특별시 동작구 장승배기로10가길 35 (개방화장실),37.49912572,126.931404
화장실,동작구민체육센터,서울특별시 동작구 여의대방로16길 53 (공중화장실),37.49582559,126.9540531
화장실,동작구민회관,서울특별시 동작구 보라매로5길 28 (공중화장실),37.503067,126.9779371
화장실,동작구시설관리공단,서울특별시 동작구 보라매로5길 28 (공중화장실),37.47611377,126.9733888
화장실,동작구의회,서울특별시 동작구 장승배기로 161 (공중화장실),37.49937464,126.9414012
화장실,동작구청,서울특별시 동작구 장승배기로 161 (공중화장실),37.50832549,126.9537671
화장실,동작문화복지센터,서울특별시 동작구 장승배기로10길 42 (공중화장실),37.48030179,126.9677316
화장실,동작삼일수영장,서울특별시 동작구 사당로27길 103 (공중화장실),37.50431912,126.9380937
화장실,동작샘터도서관,서울 동작구 동작대로29길 63-26 (공중화장실),37.50499938,126.9747222
화장실,동작어린이도서관,서울특별시 동작구 장승배기로 16길 98 (공중화장실),37.51125414,126.9616259
화장실,동작이수사회복지관,서울특별시 동작구 동작대로35차길 7 (공중화장실),37.49912594,126.984275
화장실,동작종합사회복지관,서울특별시 동작구 등용로 47 (공중화장실),37.49468689,126.9594307
화장실,동하개발 메디컬센터,서울특별시 남부순환로 397길 57 (개방화장실),37.49885567,127.0713671
화장실,동하빌딩,서울특별시 남부순환로 2913 (개방화장실),37.49662252,127.0552332
화장실,동화히스토리,서울특별시 학동로4길 15 (개방화장실),37.51679179,127.0349277
화장실,두산빌딩,서울특별시 언주로 726 (개방화장실),37.5169531,127.0371728
화장실,롯데캐슬상가,서울특별시 삼성로85길 11 (개방화장실),37.46728335,127.119006
화장실,르메이에르타운,서울특별시 도곡로3길 13 (개방화장실),37.50196686,127.0442676
화장실,리엔,서울특별시 개포로 28길 9 (개방화장실),37.5150255,127.0230305
화장실,마루공원 야외 화장실,서울특별시 강남구 개포로625 (공중화장실),37.48463106,127.056092
화장실,마루공원 원형 화장실,서울특별시 강남구 개포로625 (공중화장실),37.48541081,127.0547048
화장실,마샬빌딩(강남지인병원),서울특별시 언주로631 (개방화장실),37.49315498,127.063
화장실,매봉산 실내배드민턴장,서울특별시 강남구 남부순환로 2711 (공중화장실),37.49951141,127.0544655
화장실,매봉주유소,서울특별시 언주로 307 (개방화장실),37.48476112,127.0808748
화장실,맥도날드,서울 동작구 노량진로 158 (개방화장실),37.50783046,126.9472628
화장실,메이플빌딩,서울특별시 테헤란로 420 (개방화장실),37.50769068,127.0549776
화장실,메트로칸 오피스텔,서울특별시 테헤란로88길 10 (개방화장실),37.5011026,127.0644611
화장실,명가원,서울특별시 도곡로526 (개방화장실),37.50456245,127.0552316
화장실,명품주유소,서울특별시 도곡로 249 (개방화장실),37.48553054,127.0847979
화장실,목련타운(아) 상가,서울특별시 광평로19길 15 (개방화장실),37.49420459,127.0776483
화장실,못골한옥어린이도서관화장실,서울특별시 강남구 자곡로 7길 3 (공중화장실),37.50848958,127.0262229
화장실,미도종합상가,서울특별시 삼성로 150 (개방화장실),37.50673085,127.0623867
화장실,미미위강남세움센터,서울특별시 강남구 광평로60길 22 (공중화장실),37.49649918,127.0320288
화장실,미성(아)상가,서울특별시 압구정로 113-22 (개방화장실),37.50851669,126.9373567
화장실,미소빌딩,서울특별시 영동대로112길 61 (개방화장실),37.51039058,127.0550962
화장실,믿음가득 매일주유소,서울 동작구 상도로 139 (개방화장실),37.49388178,126.9226597
화장실,밀란,서울특별시 개포로 28길 4 (개방화장실),37.51310262,127.0208594
화장실,반도상가,서울특별시 압구정로 306 (개방화장실),37.52885464,127.0347532
화장실,방죽주유소,서울특별시 밤고개로 215 (개방화장실),37.51824654,127.0237137
화장실,배강빌딩,서울특별시 선릉로 801 (개방화장실),37.5235717,127.0388327
화장실,백영삼릉빌딩,서울특별시 봉은사로 413 (개방화장실),37.51258807,127.050792
화장실,백영삼성빌딩,서울특별시 삼성로 546 (개방화장실),37.50990816,127.0553404
화장실,백영신사빌딩,서울특별시 도산대로 307 (개방화장실),37.52227602,127.0348969
화장실,베스트프랜드,서울특별시 학동로 114 (개방화장실),37.51929807,127.0344511
화장실,보전빌딩,서울특별시 언주로 725 (개방화장실),37.50886315,127.0377809
화장실,본동 공중화장실,서울 동작구 본동 126-449 (공중화장실),37.48806393,126.9791506
화장실,본동종합사회복지관,서울특별시 동작구 노량진로32길 79 (공중화장실),37.50387795,126.9502111
화장실,부영빌딩,서울특별시 강남대로 286 (개방화장실),37.4879274,127.0331827
화장실,불국사둘레길,서울특별시 강남구 일원동 441 (공중화장실),37.50036189,127.0808627
화장실,블루스톤스포츠,서울시 동작구 현충로 131 (개방화장실),37.49841253,126.924544
화장실,사당1동 주민센터,서울특별시 동작구 동작대로17길 28 (공중화장실),37.49312068,126.9768759
화장실,사당2동 주민센터,서울특별시 동작구 동작대로29길 52 (공중화장실),37.4832722,126.9714537
화장실,사당3동 주민센터(임시청사),서울특별시 동작구 사당로17길 31 (공중화장실),37.50249773,126.9496593
화장실,사당4동 주민센터,서울특별시 동작구 사당로16아길 6 (공중화장실),37.49798173,126.922
화장실,사당4동 청소년 독서실,서울특별시 동작구 사당로22나길 71 (공중화장실),37.48755023,126.9129604
화장실,사당5동 공중화장실,서울 동작구 사당동 712-5 (공중화장실),37.50286297,126.9351815
화장실,사당5동 주민센터,서울특별시 동작구 사당로2가길 219 (공중화장실),37.49243281,126.936978
화장실,사당문화회관,서울특별시 동작구 사당로8길 9 (공중화장실),37.48807156,126.982279
화장실,사당종합사회복지관,서울특별시 동작구 사당로14길 20 (공중화장실),37.48263427,126.9682025
화장실,사당종합체육관,서울특별시 동작구 사당로27길 232 (공중화장실),37.50286104,126.9799855
화장실,사육신 공중화장실,서울 동작구 노량진동 153-18 (공중화장실),37.51296927,126.9370032
화장실,사이룩스오피스텔(동관동),서울특별시 광평로 295 (개방화장실),37.51252777,126.9399421
화장실,사이룩스오피스텔(서관동),서울특별시 광평로 295 (개방화장실),37.51453063,126.9524302
화장실,사자암 공중화장실,서울 동작구 상도동 280 (공중화장실),37.51319515,126.9411962
화장실,살피재주유소,서울 동작구 상도로 334 (개방화장실),37.48046865,126.9731013
화장실,삼릉빌딩,서울특별시 선릉로 602 (개방화장실),37.51101943,127.0452417
화장실,삼성1파출소,서울특별시 강남구 영동대로112길 4 (공중화장실),37.47977839,127.0511676
화장실,삼성2파출소,서울특별시 강남구 봉은사로 440 (공중화장실),37.49241615,127.0833736
화장실,삼성금융플라자,서울특별시 테헤란로 419 (개방화장실),37.46647315,127.0977952
화장실,삼성동 업무시설,서울특별시 삼성로 538 (개방화장실),37.50748232,127.0571652
화장실,삼성로별관,서울특별시 강남구 삼성로 628 (공중화장실),37.51386514,127.0293218
화장실,삼성빌딩,서울특별시 개포로 82길 7 (개방화장실),37.47679218,127.0559259
화장실,삼성상가,서울특별시 도곡로 516 (개방화장실),37.50459931,127.0561865
화장실,삼성생명 사당빌딩,서울 동작구 동작대로 35 (개방화장실),37.49280633,126.9697426
화장실,삼성세무서,"서울특별시 강남구 테헤란로 114, 5층,6층 (공중화장실)",37.47581662,127.0520457
화장실,삼성아파트 상가,서울특별시 남부순환로379길 14 (개방화장실),37.48847198,127.0487327
화장실,삼성파크아파트,서울특별시 삼성로99길 14 (개방화장실),37.50602438,127.0489948
화장실,삼우빌딩,서울특별시 개포로82길 11 (개방화장실),37.4753216,127.0503954
화장실,삼익쇼핑,서울특별시 학동로101길 26 (개방화장실),37.49197961,127.0731744
화장실,삼흥2빌딩,서울특별시 테헤란로 514 (개방화장실),37.49918128,127.0629879
화장실,상도1동 공중화장실,서울 동작구 상도로41가길 19 (공중화장실),37.50185261,126.9349093
화장실,상도1동 주민센터,서울특별시 동작구 상도로53길 9 (공중화장실),37.50920488,126.9434323
화장실,상도2동주민센터,서울특별시 동작구 상도로 211 (공중화장실),37.50302549,126.9252227
화장실,상도3동 주민센터,서울특별시 동작구 성대로2길 11 (공중화장실),37.50571439,126.9334187
화장실,상도3동 청소년독서실,서울특별시 동작구 국사봉2나길 25 (공중화장실),37.51277879,126.9530641
화장실,상도4동 청소년독서실,서울특별시 동작구 성대로11길 67 (공중화장실),37.48554336,126.9818866
화장실,상도4동주민센터,서울특별시 동작구 양녕로27길 44 (공중화장실),37.5105335,126.9568903
화장실,상도근린공원 공중화장실,서울 동작구 상도동 산57-64 (공중화장실),37.50810003,126.9652391
화장실,상도스포츠클럽,서울특별시 동작구 성대로2길 11 (공중화장실),37.48473662,126.9711163
화장실,상도종합사회복지관,서울특별시 동작구 상도로39가길 7 (공중화장실),37.48652583,126.9101399
화장실,새마을운동중앙회,서울특별시 영동대로 316 (개방화장실),37.50549362,127.0508632
화장실,새서울석유,서울특별시 압구정로 154 (개방화장실),37.51230121,126.9419936
화장실,샘터상가,서울특별시 일원로 120 (개방화장실),37.49844847,127.0775716
화장실,서광주유소,서울특별시 역삼로 142 (개방화장실),37.49137529,127.0325108
화장실,서린빌딩,서울특별시 논현로131길12 (개방화장실),37.52030661,127.0339793
화장실,서울물재생시설공단,서울특별시 강남구 강남대로 492-2 (공중화장실),37.49778119,127.0824762
화장실,서울베다니 교회,서울특별시 삼성로62길 14 (개방화장실),37.50581497,127.056131
화장실,서울주택도시공사 본관화장실,서울특별시 강남구 개포로 621 (공중화장실),37.47252883,127.1152953
화장실,서울충신교회,서울특별시 광평로31길 40 (개방화장실),37.4952067,127.0858249
화장실,석탑플라자,서울특별시 개포로 109길 9 (개방화장실),37.52018774,127.0554556
화장실,선경상가,서울특별시 삼성로 151 (개방화장실),37.4931667,127.0591649
화장실,선릉이스타빌,서울특별시 테헤란로52길 15 (개방화장실),37.48315804,127.0603954
화장실,선진빌딩,서울특별시 선릉로 608 (개방화장실),37.51064535,127.0440139
화장실,선진주유소,서울특별시 도곡로 162 (개방화장실),37.49055984,127.0357816
화장실,섬유센터,서울특별시 테헤란로 518 (개방화장실),37.49955489,127.0638981
화장실,성담빌딩,서울특별시 테헤란로 411 (개방화장실),37.46318242,127.102956
화장실,성원타워,서울특별시 선릉로 514 (개방화장실),37.46595145,127.1090402
화장실,성은교회,서울특별시 남부순환로391길 25 (개방화장실),37.49945155,127.0446696
화장실,성지하이츠 2차 오피스텔,서울특별시 테헤란로 147 (개방화장실),37.50744035,127.0352489
화장실,성지하이츠 3차 오피스텔,서울특별시 논현로 507 (개방화장실),37.50084855,127.035677
화장실,세곡119안전센터,서울특별시 강남구 밤고개로 268 (공중화장실),37.49972974,127.0578495
화장실,세곡근린공원,서울특별시 강남구 세곡동 산50-15 (공중화장실),37.48019431,127.0808212
화장실,세곡동공중화장실(기존),서울특별시 강남구 헌릉로 649 (공중화장실),37.47330615,127.0997279
화장실,세곡동공중화장실(신설),서울특별시 강남구 헌릉로 621 (공중화장실),37.51697191,127.0227057
화장실,세곡주유소,서울특별시 헌릉로 731 (개방화장실),37.48403089,127.0949901
화장실,세곡천(세곡1교),서울특별시 강남구 세곡동618 (공중화장실),37.51450075,127.0409805
화장실,세곡천(세곡3교),서울특별시 강남구 세곡동54 (공중화장실),37.4991457,127.0431032
화장실,세곡천(세곡5교),서울특별시 강남구 세곡동526-2 (공중화장실),37.50396606,127.0429099
화장실,세곡해성빌딩,서울특별시 헌릉로570길 30 (개방화장실),37.51685602,127.0197982
화장실,세곡해오름근린공원,서울특별시 강남구 세곡동214 (공중화장실),37.49603555,127.0758031
화장실,세아빌딩,서울특별시 영동대로 429 (개방화장실),37.50712432,127.066993
화장실,세일빌딩,서울특별시 학동로2길 19 (개방화장실),37.5107347,127.0327347
화장실,세천근린공원,서울특별시 강남구 세곡동603 (공중화장실),37.48754102,127.1054203
화장실,세텍,서울특별시 강남구 남부순환로 3104 (공중화장실),37.49558348,127.0786035
화장실,세한889타워,서울특별시 선릉로 428 (개방화장실),37.50587012,127.0521804
화장실,센트럴 주유소,서울특별시 삼성로 335 (개방화장실),37.46727172,127.1187426
화장실,송산빌딩,서울특별시 봉은사로 210 (개방화장실),37.50273402,127.0364874
화장실,송암빌딩,서울특별시 언주로 709 (개방화장실),37.51675601,127.0408413
화장실,송파농협 세곡동지점,서울특별시 헌릉로 637길 22 (개방화장실),37.4885591,127.1044707
화장실,송현빌딩,서울특별시 테헤란로79길 13 (개방화장실),37.47475192,127.1070339
화장실,수서119안전센터,서울특별시 강남구 광평로31길 6 (공중화장실),37.51728313,127.0372042
화장실,수서개나리어린이공원,서울특별시 강남구 수서동723-1 (공중화장실),37.47379037,127.0708791
화장실,수서경찰서,서울특별시 강남구 개포로617 (공중화장실),37.50862705,127.0674147
화장실,수서동주민센터,서울특별시 강남구 광평로 301-4 (공중화장실),37.51837079,127.0241334
화장실,수서삼성(아) 상가,서울특별시 광평로31길 27 (개방화장실),37.49418481,127.0752154
화장실,수서파출소,서울특별시 강남구 밤고개로1길 48 (공중화장실),37.46517604,127.1073624
화장실,수서현대벤처빌,서울특별시 밤고개로1길 10 (개방화장실),37.50271601,126.9408268
화장실,스타벅스,서울특별시 삼성로 605 (개방화장실),37.51236724,127.0520266
화장실,습지원약수터,서울특별시 강남구 개포동 산53-42 (공중화장실),37.48775087,127.058902
화장실,신논현역,서울특별시 강남구 봉은사로 지하102 (공중화장실),37.508862,127.063073
화장실,신대방1동주민센터,서울특별시 동작구 신대방길 72 (공중화장실),37.49149402,126.9552907
화장실,신대방2동주민센터,서울특별시 동작구 여의대방로24길 76 (공중화장실),37.503067,126.9779371
화장실,신도벤처타워,서울특별시 테헤란로 333 (개방화장실),37.50262719,127.0450144
화장실,신도빌딩,서울특별시 테헤란로88길 14 (개방화장실),37.49974005,127.0618684
화장실,신동아리버파크 상가,서울 동작구 만양로 19 (개방화장실),37.48471669,126.9696126
화장실,신사근린공원,서울특별시 강남구 압구정동422 (공중화장실),37.50702838,127.0616837
화장실,신사문화센터,서울특별시 강남구 압구정로 128 (공중화장실),37.49185469,127.0880264
화장실,신사미타워,서울특별시 강남대로 616 (개방화장실),37.51340714,126.9439576
화장실,신사에스엔지(구 신사제2빌딩),서울특별시 역삼로 542 (개방화장실),37.50514527,127.0525582
화장실,신사파출소,서울특별시 강남구 도산대로 143 (공중화장실),37.4650971,127.1071773
화장실,신영빌딩,서울특별시 개포로 249 (개방화장실),37.47773349,127.0480885
화장실,신한양상가,서울특별시 영동대로138길 9 (개방화장실),37.5210886,127.053227
화장실,쌍봉빌딩,서울특별시 언주로 874 (개방화장실),37.52858858,127.0341335
화장실,쌍용(아)종합 상가,서울특별시 영동대로 210 (개방화장실),37.49577445,127.0396305
화장실,쌍용플래티넘,서울특별시 봉은사로 474 (개방화장실),37.51188486,127.053593
화장실,씨네시티,서울특별시 도산대로 323 (개방화장실),37.52289716,127.0370163
화장실,아크플레이스(구 캐피탈타워),서울특별시 테헤란로 142 (개방화장실),37.4985647,127.0350268
화장실,안테룸 호텔,서울특별시 도산대로 153 (개방화장실),37.50506728,126.9437988
화장실,압구정 파출소,서울특별시 강남구 압구정로 311 (공중화장실),37.53061724,127.0306522
화장실,압구정노인복지센터,서울특별시 강남구 도산대로53길 5 (공중화장실),37.486322,127.036793
화장실,압구정동주민센터,서울특별시 강남구 압구정로33길 48 (공중화장실),37.49828846,127.0301032
화장실,압구정빌딩,서울특별시 논현로 842 (개방화장실),37.49810133,126.9530811
화장실,압구정주유소,서울특별시 언주로842 (개방화장실),37.52534678,127.0338028
화장실,압구정평생학습관,서울특별시 강남구 언주로 172길 26 (공중화장실),37.4931481,127.0877673
화장실,양재천(밀리미교),서울특별시 강남구 도곡동 468 (공중화장실),37.47253952,127.1191458
화장실,양재천(영동2교),서울특별시 강남구 개포동1279 (공중화장실),37.49267525,127.0995873
화장실,양재천(영동3교),서울특별시 강남구 개포동175 (공중화장실),37.46211783,127.1170443
화장실,양재천(영동4교),서울특별시 강남구 개포동648-2 (공중화장실),37.46594861,127.10035
화장실,양재천(영동6교),서울특별시 강남구 대치동805 (공중화장실),37.46227718,127.1045967
화장실,양재SK허브프리모,서울특별시 강남대로240 (개방화장실),37.48518529,127.0358837
화장실,양지빌딩,서울특별시 테헤란로84길 9 (개방화장실),37.50296212,127.0598019
화장실,언주초교 공영노외주차장,서울특별시 남부순환로363길 19 (공중화장실),37.4971303,127.0424466
화장실,에스알,서울특별시 강남구 광평로 281 (공중화장실),37.51591066,127.0521426
화장실,에이치케이웨딩홀,서울특별시 학동로 519 (개방화장실),37.46657364,127.0955681
화장실,에코파크 관리동 화장실,서울특별시 강남구 개포로625 (공중화장실),37.48328034,127.0543931
화장실,에코파크 야외 화장실,서울특별시 강남구 개포로625 (공중화장실),37.48914068,127.0708715
화장실,엔젤리안,서울특별시 헌릉로571길 56-1 (개방화장실),37.48576628,127.0972633
화장실,여천빌딩,서울특별시 남부순환로 2909 (개방화장실),37.50080176,127.0430774
화장실,역삼119안전센터,서울특별시 강남구 역삼로 236 (공중화장실),37.52397448,127.0227964
화장실,역삼1문화센터,서울특별시 강남구 역삼로 7길 16 (공중화장실),37.51548988,127.0252037
화장실,역삼2문화센터,서울특별시 강남구 도곡로 43길 25 (공중화장실),37.49759376,127.0362687
화장실,역삼근린공원화장실,서울특별시 강남구 논현로79길 24 (공중화장실),37.49961577,127.0659154
화장실,역삼노인복지센터,서울특별시 강남구 도곡로27길 27 (공중화장실),37.50879762,127.066445
화장실,역삼자이상가,서울특별시 언주로 408 (개방화장실),37.4948857,127.045838
화장실,역삼지구대,서울특별시 강남구 언주로 108길20 (공중화장실),37.4935488,127.0771437
화장실,연우빌딩,서울특별시 개포로22길46 (개방화장실),37.47853145,127.0491193
화장실,열림교회,서울 동작구 여의대방로44길 22 (개방화장실),37.50850509,126.9619383
화장실,영광빌딩,서울특별시 테헤란로84길 17 (개방화장실),37.50397984,127.0623438
화장실,영동119안전센터,서울특별시 강남구 도산대로 320 (공중화장실),37.52684175,127.0270569
화장실,영동올뱅이집,서울특별시 개포로 22길 16 (개방화장실),37.5144764,127.0292376
화장실,예림빌딩,서울특별시 선릉로 638 (개방화장실),37.51123612,127.04382
화장실,예지어린이공원,서울특별시 강남구 개포동 12-7 (공중화장실),37.47251575,127.066463
화장실,옛1약수터,서울특별시 강남구 일원동 산52-13 (공중화장실),37.48600277,127.0543094
화장실,오성빌딩,서울특별시 선릉로 38 (개방화장실),37.48458782,127.0441714
화장실,오송빌딩,서울 동작구 동작대로 141 (개방화장실),37.50018282,126.9336858
화장실,옥산빌딩,서울특별시 테헤란로 503 (개방화장실),37.51428104,127.0621468
화장실,옥수천약수터,서울특별시 강남구 개포동 산 53-32 (공중화장실),37.50043722,127.0748352
화장실,용두천약수터,서울특별시 강남구 개포동 192 (공중화장실),37.49409176,127.0718477
화장실,우성빌딩,서울특별시 역삼로 145 (개방화장실),37.49954924,127.0282484
화장실,우성스포츠센터,서울 동작구 여의대방로 2 (개방화장실),37.49471976,126.9167677
화장실,우일상가,서울특별시 남부순환로 2915 (개방화장실),37.49811199,127.0600088
화장실,원앙빌딩(한국마사회강남지점),서울특별시 도산대로 529 (개방화장실),37.46920888,127.093131
화장실,위시존 강남점,서울특별시 헌릉로569길 39-5 (개방화장실),37.52288891,127.0206
화장실,윈플러스상가,서울특별시 남부순환로 2936 (개방화장실),37.49293753,127.0588778
화장실,유성빌딩(대청카센터),서울특별시 개포로 140길 6 (개방화장실),37.51764123,127.0416732
화장실,유아숲체험장,서울특별시 강남구 일원동 산52-13 (공중화장실),37.47932217,127.0715418
화장실,유진주유소,서울특별시 논현로 152 (개방화장실),37.49536487,127.05272
화장실,유창빌딩,서울특별시 강남구 논현로34길 26 (개방화장실),37.48932756,127.0463116
화장실,유한양행,서울 동작구 노량진로 74 (개방화장실),37.51005512,126.9634463
화장실,윤화돈까스,서울특별시 도곡로221 (개방화장실),37.48520191,127.0826728
화장실,율현3공원,서울특별시 강남구 율현동 77-2 (공중화장실),37.50463416,127.0250313
화장실,은마 주유소,서울특별시 영동대로 235 (개방화장실),37.50560237,127.0491627
화장실,은마종합상가,서울특별시 삼성로 212 (개방화장실),37.50803818,127.0627957
화장실,은마종합상가 편의동,서울특별시 삼성로 212 (개방화장실),37.50763524,127.0631496
화장실,이수교 공중화장실,서울 동작구 동작동 86-6 (공중화장실),37.5134328,126.9435384
화장실,7호선 이수역,서울특별시 동작구 사당동 144-4 (공중화장실),37.50547361,126.9499672
화장실,이케이타워,서울특별시 테헤란로 407 (개방화장실),37.46641852,127.1091494
화장실,일원1동주민센터,서울특별시 강남구 양재대로55길 14 (공중화장실),37.48098949,127.0780788
화장실,일원2동주민센터,서울특별시 강남구 개포로 607 (공중화장실),37.48613775,127.0424159
화장실,일원까치어린이공원,서울특별시 강남구 일원동 712-4 (공중화장실),37.47223433,127.0597841
화장실,일원본동주민센터,서울특별시 강남구 광평로 126 (공중화장실),37.52079791,127.0542756
화장실,일원장미어린이공원,서울특별시 강남구 일원동 732-4 (공중화장실),37.47324559,127.0712241
화장실,일원파출소,서울특별시 강남구 일원로3길 35 (공중화장실),37.48900105,127.1052808
화장실,자곡문화센터,서울특별시 강남구 자곡로 100 (공중화장실),37.52439079,127.0351174
화장실,자곡주유소,서울특별시 밤고개로 120 (개방화장실),37.52556489,127.0260489
화장실,자연학습장,서울특별시 강남구 일원동 산56 (공중화장실),37.4853874,127.0755857
화장실,장성빌딩,서울 동작구 장승배기로 113 (개방화장실),37.48733571,126.9744112
화장실,장우빌딩,서울특별시 개포로82길 13-11 (개방화장실),37.47621269,127.0495724
화장실,전기공사공제조합,서울특별시 강남대로 574 (개방화장실),37.51220739,127.0285632
화장실,전남친환경유통센터빌딩,서울특별시 논현로10길 29 (개방화장실),37.47718587,127.048051
화장실,절고개 공중화장실,서울 동작구 상도동 508 (공중화장실),37.50573583,126.9228813
화장실,정도빌딩,서울특별시 논현로 340 (개방화장실),37.48483786,127.089779
화장실,제이에스타워,서울특별시 테헤란로79길 6 (개방화장실),37.47648932,127.1053399
화장실,제이타워,서울특별시 도산대로 139 (개방화장실),37.4831195,126.9815309
화장실,주구 1상가,서울특별시 압구정로29길 68 (개방화장실),37.53253638,127.0291865
화장실,주구 2상가,서울특별시 압구정로29길 68 (개방화장실),37.53153417,127.0292731
화장실,주차공원 공중화장실,서울 동작구 현충로 220 (공중화장실),37.48493526,126.9698956
화장실,중산빌딩,서울특별시 논현로 878 (개방화장실),37.52709141,127.0289521
화장실,중앙대학교병원,서울 동작구 흑석로 102 (개방화장실),37.49982365,126.9784084
화장실,중앙에너비스수서지점,서울특별시 광평로 202 (개방화장실),37.5253216,127.0288651
화장실,중앙화장실,서울특별시 동작구 여의대방로20길33 (공중화장실),37.49281508,126.9658188
화장실,진달래 주유소,서울특별시 도곡로 208 (개방화장실),37.49198428,127.0406761
화장실,진달래(아) 상가,서울특별시 선릉로 227 (개방화장실),37.51597354,127.0652166
화장실,진양까스,서울특별시 도곡로 142 (개방화장실),37.48937712,127.0322008
화장실,진우빌딩,서울특별시 논현로 667 (개방화장실),37.51279085,127.0350284
화장실,참새공원 공중화장실,서울 동작구 여의대방로24길 29 (공중화장실),37.51223122,126.9257699
화장실,채널리저브,서울특별시 삼성로 517 (개방화장실),37.48353369,127.1040118
화장실,천의약수터,서울특별시 강남구 개포동 산 53-30 (공중화장실),37.47970565,127.0795596
화장실,천주교 서울대교구 대치2동성당,서울특별시 도곡로 540 (개방화장실),37.50142645,127.0590742
화장실,청담근린공원 공중화장실,서울특별시 강남구 청담동 66-3 (공중화장실),37.47846084,127.0735407
화장실,청담파출소,서울특별시 강남구 학동로95길19 (공중화장실),37.46524911,127.1101037
화장실,청담평생학습관,서울특별시 강남구 학동로 67길 11 (공중화장실),37.49491536,127.0793181
화장실,청송빌딩,서울특별시 삼성로 40 (개방화장실),37.4723696,127.0517062
화장실,청실종합상가,서울특별시 남부순환로 2917 (개방화장실),37.49663573,127.0588476
화장실,청우빌딩,서울특별시 남부순환로 2911 (개방화장실),37.50056739,127.0423818
화장실,청우빌딩 개방화장실,서울특별시 개포로 506 (개방화장실),37.478738,127.0481381
화장실,청화병원,서울 동작구 장승배기로 108 (개방화장실),37.50444553,126.9410884
화장실,충무성결교회,서울특별시 삼성로85길 25 (개방화장실),37.4665568,127.1190654
화장실,카이로스빌딩,서울특별시 삼성로51길11 (개방화장실),37.4935291,127.0565599
화장실,커피스미스빌딩,서울특별시 테헤란로8길 25 (개방화장실),37.49734153,127.0326868
화장실,케이스퀘어강남,서울특별시 강남대로94길 11 (개방화장실),37.49728645,127.0321344
화장실,코스모타워(KT&G),서울특별시 영동대로 416 (개방화장실),37.50539276,127.0501094
화장실,크리스빌딩(구한웰빌딩),서울특별시 도곡로 176 (개방화장실),37.49104669,127.0377014
화장실,탄천(광평교),서울특별시 강남구 수서동329-34 (공중화장실),37.50499653,127.0519074
화장실,탄천(대곡교),서울특별시 강남구 율현동94 (공중화장실),37.48811677,127.1030688
화장실,탄천(탄천1교),서울특별시 강남구 일원동580-3 (공중화장실),37.50978716,127.0432183
화장실,탄천(탄천2교),서울특별시 강남구 대치동78-28 (공중화장실),37.49453769,127.0418317
화장실,탄천2호 공영노외주차장,서울특별시 양재대로55길 28 (공중화장실),37.47044242,127.107195
화장실,탄천공영주차장(5번입구 제방위),서울특별시 강남구 역삼로107길 20-28 (공중화장실),37.49358351,127.0780732
화장실,탄천근린공원,서울특별시 강남구 수서동722 (공중화장실),37.50790487,127.0613444
화장실,탄천양재천방문자센터,서울특별시 강남구 대치동3-3 (공중화장실),37.50304252,127.0541301
화장실,탄천주차장,서울특별시 강남구 역삼로107길 20-28 (공중화장실),37.51406694,127.0325316
화장실,태화기독교사회복지관,서울특별시 광평로 185 (개방화장실),37.48262917,127.0765203
화장실,파크랜드빌딩,서울특별시 언주로 601 (개방화장실),37.4938814,127.0629519
화장실,팍스타워,서울특별시 언주로 609 (개방화장실),37.49364576,127.0623213
화장실,포스코,서울특별시 테헤란로 440 (개방화장실),37.507317,127.0556323
화장실,포이근린공원(출발마당),서울특별시 강남구 개포동 1248 (공중화장실),37.4807209,127.0807571
화장실,포이초교 공영노외주차장,서울특별시 개포로22길87 (공중화장실),37.52214286,127.0369343
화장실,푸른마을 상가,서울특별시 일원로14길 25 (개방화장실),37.4943412,127.0796478
화장실,푸른솔도서관,서울특별시 강남구 테헤란로 8길 36 (공중화장실),37.48957104,127.0571599
화장실,하늘마루타운상가,서울 동작구 알마타길 6 (개방화장실),37.49489212,126.9194911
화장실,학동근린공원,서울특별시 강남구 논현동 26 (공중화장실),37.52671558,127.0214766
화장실,학여울근린공원화장실,서울특별시 개포로 509 (공중화장실),37.5074268,127.0597555
화장실,학여울주유소,서울특별시 남부순환로 3170 (개방화장실),37.5224448,127.0576204
화장실,한국가스안전공사,서울특별시 강남구 남부순환로 3183 (공중화장실),37.4889031,127.1049911
화장실,한국마사회 선릉지사,서울특별시 강남구 테헤란로 416 (공중화장실),37.51796816,127.0470598
화장실,한국부동산원,서울특별시 강남구 언주로79길13 (공중화장실),37.49388799,127.0642724
화장실,한국에너지기술평가원,서울특별시 강남구 테헤란로 114길14 (공중화장실),37.50936668,127.0670999
화장실,한국전력 관악동작지사,서울특별시 동작구 동작대로 19 (공중화장실),37.51357356,126.9408265
화장실,한국콘텐츠진흥원,서울특별시 강남구 논현로 525 (공중화장실),37.48337906,127.0864829
화장실,한국토지주택공사,서울특별시 강남구 선릉로121길12 (공중화장실),37.51631968,127.0423148
화장실,한마음어린이공원,서울특별시 강남구 개포동 12-3 (공중화장실),37.47481746,127.0693081
화장실,한솔(아) 상가,서울특별시 광평로10길 6 (개방화장실),37.49769775,127.075475
화장실,한솔근린공원,서울특별시 강남구 일원동 732 (공중화장실),37.50656248,127.059722
화장실,한솔필리아,서울특별시 역삼로 310 (개방화장실),37.48566723,127.0899043
화장실,한양주유소,서울특별시 압구정로 302 (개방화장실),37.52880832,127.034161
화장실,한양타운,서울특별시 선릉로 823 (개방화장실),37.52563554,127.0393425
화장실,한주실업빌딩(이그잼),서울 동작구 노량진로 162 (개방화장실),37.48097575,126.9716337
화장실,한화진넥스빌,서울특별시 언주로86길 11 (개방화장실),37.50317178,127.0479366
화장실,헤리츠타워(컨벤션헤리츠),서울특별시 논현로 662 (개방화장실),37.49070599,127.0561429
화장실,현대1차아파트 상가,서울특별시 개포로303 (개방화장실),37.48874694,127.0681163
화장실,현대삼성동주유소,서울특별시 테헤란로 619 (개방화장실),37.51015034,127.066049
화장실,현대상가 10차동,서울특별시 압구정로29길 69 (개방화장실),37.53108643,127.025109
화장실,현대상가 4동,서울특별시 압구정로29길 71 (개방화장실),37.53360328,127.0283258
화장실,현대오일뱅크 도곡셀프주유소,서울특별시 남부순환로 2718 (개방화장실),37.48335989,127.0427929
화장실,현대오일뱅크 동작주유소,서울 동작구 상도로 403 (개방화장실),37.48566276,126.9669792
화장실,현대오일뱅크 사당셀프주유소,서울 동작구 동작대로 73 (개방화장실),37.50815443,126.9263229
화장실,현대자동차정비,서울 동작구 상도로 226 (개방화장실),37.48894469,126.9100394
화장실,현대타워,서울특별시 테헤란로 423 (개방화장실),37.47499822,127.1068695
화장실,"현충근린공원(동작동,정금) 간이공중화장실",서울특별시 동작구 동작대로 29 (공중화장실),37.4887124,126.9792525
화장실,"현충근린공원(사당동,상록) 간이공중화장실",서울특별시 동작구 동작대로 29 (공중화장실),37.48451165,126.9734806
화장실,현충원 공중화장실,서울 동작구 동작동 산45-1 (공중화장실),37.49493633,126.9614459
화장실,홍우빌딩,서울특별시 테헤란로 522 (개방화장실),37.5002919,127.0665354
화장실,화천회관빌딩,서울특별시 영동대로 702 (개방화장실),37.49209459,127.0881964
화장실,효사정 공중화장실,서울 동작구 흑석동 172-2 (공중화장실),37.48870348,126.98197
화장실,흑석 청소년독서실,서울특별시 동작구 서달로13길 17 (공중화장실),37.47686327,126.9815951
화장실,흑석(중앙대입구)역,서울특별시 동작구 현충로 지하90 (공중화장실),37.50775194,126.9267361
화장실,흑석동 주민센터,서울특별시 동작구 흑석한강로 11 (공중화장실),37.50992631,126.9304253
화장실,흑석체육센터,서울특별시 동작구 현충로 73 (공중화장실),37.50351763,126.9472869
화장실,희영빌딩,서울특별시 개포로 232 (개방화장실),37.4784601,127.0497471
화장실,힐링센터(개포),서울특별시 강남구 삼성로 3길 39 (공중화장실),37.49257983,127.0826533
화장실,ANDAZ(지하층),서울특별시 논현로 854 (개방화장실),37.50546805,126.9423012
화장실,CJ푸드빌빕스대방점,서울 동작구 노량진로 2 (개방화장실),37.47961788,126.981357
화장실,D'mark빌딩,서울특별시 도곡로 408 (개방화장실),37.49589179,127.0464763
화장실,G빌딩(펀비어킹),서울특별시 언주로 134길 19 (개방화장실),37.49367579,127.0603584
화장실,GS칼텍스 산성주유소,서울특별시 헌릉로 730 (개방화장실),37.4744693,127.1039722
화장실,GS칼텍스 삼성로점,서울특별시 삼성로 563 (개방화장실),37.50930323,127.0535703
화장실,GS칼텍스 타워주유소,서울특별시 논현로 516 (개방화장실),37.50199493,127.0373364
화장실,GS타워,서울특별시 논현로 508 (개방화장실),37.50469661,127.0480134
화장실,KT빌딩,서울 동작구 노량진로 138 (개방화장실),37.50707174,126.9457182
화장실,LG 에클라트 오피스텔,서울특별시 테헤란로20길 19 (개방화장실),37.49765123,127.0366134
화장실,S-TOWER,서울특별시 봉은사로 469 (개방화장실),37.51348445,127.0527176
화장실,SK 허브블루,서울특별시 학동로 342 (개방화장실),37.49629417,127.0606031
화장실,sk네트워크 21세기주유소,서울 동작구 시흥대로 616 (개방화장실),37.50840284,126.9264693
화장실,sk네트워크 흑석동주유소,서울 동작구 현충로 101 (개방화장실),37.4892377,126.9820534
화장실,SK리더스뷰,서울특별시 남부순환로 2763 (개방화장실),37.49224196,127.0419684
화장실,SK주유소,서울특별시 논현로 747 (개방화장실),37.5106818,127.0246023
화장실,SK힐탑 주유소,서울특별시 논현로 640 (개방화장실),37.49334891,127.0619166
화장실,SP타이어,서울특별시 개포로 22길 8 (개방화장실),37.51143214,127.0233575
무료 반려견 운동장,보라매공원 놀이터,서울특별시 동작구 신대방동 395,37.490791,126.919295
동물병원,24시청담우리동물병원,서울특별시 강남구 삼성동 70-6,37.51448919,127.0528555
동물병원,강남25시동물병원,서울특별시 강남구 논현동 90-6,37.51559685,127.035016
동물병원,강남예치과동물병원,서울특별시 강남구 삼성동 9-5 2층,37.52226569,127.0396682
동물병원,개포별빛동물병원,서울특별시 강남구 개포동 1229-11 동성빌딩 1층,37.52292045,127.020579
동물병원,굿파파 24시,서울특별시 동작구 사당동 148-9,37.50002889,126.9507406
동물병원,나리울 동물병원,서울특별시 강남구 일원동 743,37.52866227,127.0325543
동물병원,나은동물병원,서울특별시 강남구 개포동 1259-4,37.47423289,127.0498203
동물병원,논현동물병원 24시,서울특별시 강남구 논현동 59-5,37.51963407,127.0290226
동물병원,놀로스퀘어,서울특별시 강남구 청담동 46 놀로스퀘어,37.51048784,127.0248978
동물병원,다랑동물병원,"서울특별시 강남구 개포동 1281 디에이치아너힐즈 상가 103호, 104호",37.48398832,127.0673919
동물병원,닥터그레이 동물병원,서울특별시 강남구 도곡동 467-7 아카데미스위트 A동 1층 104-1호,37.49097182,127.0875106
동물병원,닥터박동물병원,서울특별시 강남구 역삼동 641-10 1층,37.50254991,127.0357172
동물병원,대치동물메디컬센터,서울특별시 강남구 대치동 990-1,37.4936063,127.0596999
동물병원,대치성심동물병원,서울특별시 강남구 대치동 623 1층 69-1호,37.48867264,127.0521022
동물병원,동물병원 다온,서울특별시 강남구 도곡동 545-6 동물병원다온,37.50518685,126.9461418
동물병원,동물치과병원메이,서울특별시 강남구 역삼동 827-67 2층,37.49586212,127.032227
동물병원,드림 동물병원,서울특별시 강남구 역삼2동 771 뉴튼프라자 101호,37.47644341,127.0463186
동물병원,디아동물병원,서울특별시 강남구 개포동 158-8 2층,37.48277525,127.0622167
동물병원,래이동물의료센터,서울특별시 강남구 대치동 649,37.50897268,127.0266847
동물병원,마더스동물병원,서울특별시 강남구 세곡동 581,37.52526962,126.8594647
동물병원,메이트 동물병원,서울특별시 강남구 신사동 660-7,37.52820633,127.0378222
동물병원,보라매 웰 종합 동물병원,서울특별시 동작구 대방동 401-21 MGI빌딩 1층,37.50503353,126.9423829
동물병원,봄사랑동물병원,서울특별시 강남구 압구정동 455 주구센타 제1호내 203호,37.52072693,127.0299802
동물병원,서울동물심장병원,서울특별시 강남구 역삼동 689-2,37.49133395,127.038477
동물병원,선릉동물병원,서울특별시 강남구 역삼동 694-11 1층 선릉동물병원,37.51649834,127.0594871
동물병원,순수동물병원,서울특별시 강남구 논현동 149-6,37.51079118,127.0278619
동물병원,스마트 동물병원,서울특별시 강남구 대치동 898 갑신빌딩 1층,37.49557913,127.0498104
동물병원,스마트 동물병원 신사본원,서울특별시 강남구 신사동 587-13,37.50225339,127.0503184
동물병원,신사동물병원,서울특별시 강남구 논현동 59-5,37.4924314,127.0400165
동물병원,신정동물병원,서울특별시 양천구 신정동 987-3,37.52450388,127.052759
동물병원,아이윌24시 동물병원,서울특별시 강남구 청담동 47,37.51965046,127.0491926
동물병원,아이힐동물병원,서울특별시 강남구 역삼동 838-9 거암빌딩 2층,37.49023142,127.0329898
동물병원,압구정동물의료센터,서울특별시 강남구 신사동 617 1층 103호,37.49758073,127.042141
동물병원,압구정웰동물병원,"서울특별시 강남구 신사동 528-3 덕산빌딩 105호, 203호",37.48481921,126.9796284
동물병원,얼바인동물병원,서울특별시 강남구 자곡동 670 강남센터뷰오피스텔 1층 103호,37.47442641,127.1071077
동물병원,에이드동물병원,"서울특별시 강남구 신사동 586-3 1F, B1F",37.50669665,127.0408663
동물병원,예은동물병원,서울특별시 강남구 역삼동 798-20 1층,37.49271059,127.0577476
동물병원,와이즈동물병원,서울특별시 강남구 논현동 139-32,37.47202277,127.0960063
동물병원,우리동생 동물병원 청담점,서울특별시 강남구 청담동 76-12 라테라스 청담 1층 우리동생 동물병원 청담점,37.51973794,127.0504917
동물병원,우쭈쭈 케어센터,서울특별시 강남구 역삼동 725-29 우쭈쭈 케어센터,37.49992058,127.0405171
동물병원,위너스동물병원,서울특별시 강남구 역삼동 732-26,37.49971589,126.9222523
동물병원,유케어종합동물병원,서울특별시 동작구 상도동 27-12 성은빌딩,37.48493012,126.9698973
동물병원,이비치동물치과병원,서울특별시 강남구 청담동 1-18 대성빌딩 2층,37.52120212,127.0277458
동물병원,이안동물의학센터,서울특별시 강남구 청담동 86 킹콩빌딩 5층,37.49316602,127.03543
동물병원,임재성동물의료센터,"서울특별시 강남구 일원동 645-11 1층, 지층",37.47916665,127.0491311
동물병원,정겨운동물병원,서울특별시 동작구 상도1동 261,37.48767599,126.9755523
동물병원,중앙동물메디컬센터,서울특별시 강남구 삼성동 90-8 1~4층,37.46578201,127.1011912
동물병원,지엔동물병원,서울특별시 동작구 상도동 22-151 지엔동물병원,37.50001556,126.9254645
동물병원,청담눈초롱안과동물병원,서울특별시 강남구 청담동 125-12,37.51513789,127.0426526
동물병원,청담리덴 동물치과병원,서울특별시 강남구 청담동 52-6 3층,37.47473588,127.1048175
동물병원,츄츄동물병원,서울특별시 강남구 역삼동 834-66 이루미빌딩 1층,37.52238091,127.0351739
동물병원,치료멍멍동물병원 신사본원,"서울특별시 강남구 신사동 630-23 삼공빌딩 2, 3층",37.49709011,127.0422031
동물병원,커비동물병원,서울특별시 강남구 논현동 159-23,37.52386597,127.0396189
동물병원,튼튼동물병원,서울특별시 강남구 압구정동 426,37.5262226,127.0244793
동물병원,퍼스트동물의료센터,서울특별시 강남구 자곡동 636 서강프라자 2층 201호,37.49941611,127.0634447
동물병원,펫트너건강검진센터,서울특별시 강남구 역삼동 725-29,37.50439081,126.9493962
동물병원,품 동물의료센터,서울특별시 동작구 상도1동 623 1층,37.47712081,126.9767035
동물병원,하나카동물병원,서울특별시 강남구 역삼동 834-45,37.49422581,127.0347101
동물병원,한동물병원 개포점,서울특별시 강남구 개포동 1187-1 1층,37.50686998,127.0467573
동물병원,힐스타동물병원,서울특별시 강남구 자곡동 658 강남힐스테이트에코,37.52428202,127.0447551
동물병원,OK동물병원,서울특별시 강남구 역삼동 766-20 1층 OK동물병원,37.5251559,127.052625
동물병원,SNC동물메디컬센터,서울특별시 강남구 역삼동 727-8,37.49742506,127.0389212
동물병원,VIP동물의료센터,서울특별시 강남구 청담동 46,37.51944086,127.0490301
쓰레기통,강남 YMCA 정류소,서울 강남구 언주로 615,37.51063971,127.0361861
쓰레기통,강남교회 앞 (버스정류장 ID:20-819 옆),서울 동작구 만양로 76,37.51032643,126.9451015
쓰레기통,강남구도시관리공단 정류소,서울 강남구 삼성로 628,37.51591066,127.0521426
쓰레기통,강남구청 도로변 ,서울 강남구 삼성동 16-1,37.51756894,127.0474867
쓰레기통,강남구청 정류소 ,서울 강남구 삼성동 16-1,37.51756894,127.0474867
쓰레기통,강남구청역 3번 출구 지하철역 입구,서울 강남구 논현동 119,37.51744914,127.0406344
쓰레기통,강남구청역 4번 출구 지하철역 입구,서울 강남구 청담동 41-2,37.51757038,127.0414878
쓰레기통,강남세무서 정류소,서울 강남구 청담동 45,37.51872833,127.0470845
쓰레기통,강남에스엠여성의원 정류소,서울특별시 강남구 논현동 164-11,37.5075076,127.0235048
쓰레기통,강남역 12번 출구 지하철역 입구,서울 강남구 역삼동 822-1,37.49866394,127.0285122
쓰레기통,강남역 1번 출구 앞 지하철역 입구,서울 강남구 역삼동 804,37.50124939,127.0383316
쓰레기통,강남역 2번 출구 앞 지하철역 입구,서울 강남구 역삼동 825-13,37.49740798,127.0283489
쓰레기통,강남중학교 (버스정류장 ID: 20-006),서울 동작구 여의대방로 188-1,37.50370277,126.9220128
쓰레기통,강남지인병원 도로변,서울 강남구 언주로 631,37.51279085,127.0350284
쓰레기통,개나리sk뷰아파트상가 정류소,역삼동 716-4,37.50054661,127.0503304
쓰레기통,개포1.2차 우성아파트 9동앞 도로변,대치동 503 노인정 도로변,37.49112537,127.0598958
쓰레기통,개포3단지 정류소,서울 강남구 개포동 191 정류소,37.48320204,127.0705727
쓰레기통,개포6단지 정류소,서울 강남구 개포로 516 정류소,37.48914068,127.0708715
쓰레기통,개포동 1194-6 정류소,개포동 1194-6 정류소,37.47438609,127.048451
쓰레기통,개포동 1229-4 정류소,개포동 1229-4 정류소,37.47739219,127.0453473
쓰레기통,개포동 1231-1 정류소,개포동 1231-1 정류소,37.47846567,127.0473565
쓰레기통,개포동 1239-19 정류소,개포동 1239-19 정류소,37.47856152,127.0450995
쓰레기통,개포동 1246-2 도로변,개포동 1246-2 도로변,37.47871248,127.0459322
쓰레기통,개포동 152 정류소,개포동 152 정류소,37.48671155,127.0659077
쓰레기통,개포동 182-1 정류소,개포동 182-1 정류소,37.48978367,127.0682112
쓰레기통,개포동 183 정류소,개포동 183 정류소,37.49042593,127.0700298
쓰레기통,개포동 186 도로변,개포동 186 도로변,37.48895996,127.0666539
쓰레기통,개포동 186-2 도로변,개포동 186-2 도로변,37.48837594,127.0669545
쓰레기통,개포동 655-3 도로변,개포동 655-3 도로변,37.48112565,127.053243
쓰레기통,개포동역 1번 출구 정류소,서울 강남구 개포동 180-2 정류소,37.48913163,127.065474
쓰레기통,개포동역 7번 출구 정류소,서울 강남구 개포로 416 정류소,37.48827901,127.0653137
쓰레기통,개포래미안포레스트 106동 앞 정류소,서울 강남구 개포로 264 앞 정류소,37.47975035,127.0522282
쓰레기통,개포래미안포레스트 122동 앞 정류소,서울 강남구 언주로7길 23 정류소,37.47707467,127.0554813
쓰레기통,개포연금매장 앞 정류소,서울 강남구 선릉로 32 앞 정류소,37.48269968,127.0609448
쓰레기통,개포주공 1단지 도로변,서울 강남구 개포동 141 정류소,37.47848937,127.0616144
쓰레기통,개포주공 6단지 정류소,개포동 185 정류소,37.48887629,127.0716677
쓰레기통,개포지구대 도로변,서울 강남구 개포로 261 정류소,37.47977839,127.0511676
쓰레기통,개포한신아파트 앞 정류소,서울 강남구 언주로 123 정류장,37.48760335,127.0497551
쓰레기통,갤러리아(생활관) 정류소,서울특별시 강남구 압구정동 494,37.52856185,127.0400546
쓰레기통,갤러리아(EAST점) 도로변,서울특별시 강남구 압구정동 515,37.52808055,127.0415693
쓰레기통,갤러리아(WEST점) 도로변,서울특별시 강남구 압구정동 394,37.52808838,127.0299913
쓰레기통,거평타운 도로변,서울 강남구 논현동 203-1,37.50588971,127.0282229
쓰레기통,건우한의원 정류소,서울 강남구 선릉로 630,37.51282834,127.0431623
쓰레기통,경문고 앞 가로변,서울 동작구 동작대로 171,37.49341886,126.9822734
쓰레기통,경문고교 배나무골앞 (버스정류장 ID:20-017),서울 서초구 동작대로 164,37.49128782,126.9830588
쓰레기통,경문고등학교 (버스정류장 ID:22-031),서울 서초구 동작대로 156,37.49040771,126.9830322
쓰레기통,경향렉스빌 (버스정류장 ID:20-222 옆),서울 동작구 양녕로 167,37.49703023,126.9419634
쓰레기통,광동한방병원 정류소,서울 강남구 삼성동 161,37.51426023,127.0621313
쓰레기통,교수아파트 (버스정류장 ID:20-928 옆),서울 동작구 여의대방로10길 14,37.49632776,126.9139635
쓰레기통,구다모 정류소,서울 강남구 삼성동 113-2,37.5106567,127.046361
쓰레기통,구룡중학교 앞 정류소,서울 강남구 선릉로 103 정류소,37.48621294,127.0565075
쓰레기통,국대떡볶이 압구정로데오점 정류소,서울 강남구 선릉로 815,37.52486582,127.0393276
쓰레기통,국립현충원 (버스정류장 ID:20-133 옆),서울 동작구 동작동 193,37.50177055,126.9765621
쓰레기통,국립현충원 (버스정류장 ID:20-134 옆),서울 동작구 현충로 지하 220,37.503067,126.9779371
쓰레기통,국민은행 삼성동지점 도로변,서울 강남구 삼성동 157-33,37.50739825,127.0571911
쓰레기통,국민은행 삼성중앙역지점 도로변,서울 강남구 삼성동 51-2,37.51315812,127.0526854
쓰레기통,국민은행 압구정종합금융센터 정류소,서울 강남구 신사동 585-13,37.52280323,127.028021
쓰레기통,국민은행 청담영동지점 도로변,서울 강남구 영동대로 720,37.52218767,127.0564609
쓰레기통,국민은행 학동사거리점 도로변,서울 강남구 신사동 666-11,37.52377241,127.0389277
쓰레기통,국악고등학교 앞 정류소,서울 강남구 개포로22길 65 정류소,37.47623974,127.0512138
쓰레기통,국제모피 도로변,서울 강남구 논현동 80,37.51682183,127.0298563
쓰레기통,그랑프리상가 정류소,서울 강남구 대치동 500,37.491219,127.056525
쓰레기통,근린공원 도로변,서울 강남구 개포동 182-1 정류소,37.48978367,127.0682112
쓰레기통,글로벌뱅앤올룹슨 도로변,서울 강남구 신사동 618-4,37.52775867,127.0331627
쓰레기통,기업은행 앞 가로변,서울 동작구 장승배기로 128,37.50894894,126.9407441
쓰레기통,기업은행 언주역지점 도로변,서울 강남구 논현동 192-19,37.5074826,127.0334246
쓰레기통,깨마을 (버스정류장 ID:20-015),서울 동작구 동작대로 235,37.49774536,126.9831928
쓰레기통,나뚜찌 도로변,서울 강남구 논현동 56-22,37.51296092,127.0265515
쓰레기통,나래(한미르빌딩) 도로변,서울 강남구 선릉로 646,37.51419597,127.0426906
쓰레기통,나이스가이 헤어숍 가로변,서울 동작구 장승배기로 102,37.50673118,126.9399843
쓰레기통,남부순환로 2019 가로변,서울 동작구 남부순환로 2019,37.47624974,126.9729965
쓰레기통,남부순환로 2069 가로변,서울 동작구 남부순환로 2069,37.4769346,126.9787779
쓰레기통,남성시장 (버스정류장 ID:20-018),서울 동작구 동작대로 135,37.48870348,126.98197
쓰레기통,남성시장 (버스정류장 ID:22-029),서울 서초구 동광로12가길 42,37.48751839,126.9826007
쓰레기통,남성역 (버스정류장 ID:20-178 옆),서울 동작구 사당로13길 31,37.485803,126.9712548
쓰레기통,남성초등학교 (버스정류장 ID:20-496 옆),서울 동작구 사당로 261,37.48380753,126.9765731
쓰레기통,노들역 (버스정류장 ID:20-013),서울 동작구 노량진로 212,37.51262307,126.9495107
쓰레기통,노들역 (버스정류장 ID:20-014),서울 동작구 노량진로 226,37.51249078,126.9509408
쓰레기통,노들역앞 정류장 (버스정류장 ID:20-247 옆),서울 동작구 노량진로 247,37.51453063,126.9524302
쓰레기통,노들지구대 앞 가로변,서울 동작구 노량진로 248,37.51240231,126.9536371
쓰레기통,노량진로 124 가로변,서울 동작구 노량진로 124,37.51327301,126.9396191
쓰레기통,노량진로 16길 33 가로변,서울 동작구 노량진로 16길 33,37.51205898,126.9441735
쓰레기통,노량진로 223 (버스정류장 ID:20-121),서울 동작구 노량진로 225,37.51295292,126.9509895
쓰레기통,노량진로 223 가로변,서울 동작구 노량진로 223,37.51296888,126.950792
쓰레기통,노량진로24길 2 (버스정류장 ID:20-157 옆),서울 동작구 노량진로24길 2,37.51238829,126.9530502
쓰레기통,노량진역앞 7번 출구 지하철역 앞,서울 동작구 노량진동 60-11,37.51358514,126.9409045
쓰레기통,노량진우체국 가로변,서울 동작구 노량진로 224,37.51246533,126.9506359
쓰레기통,노량진초등학교 앞 가로변,서울 동작구 장승배기로 160,37.51175038,126.9408242
쓰레기통,노브랜드 강남삼성점 도로변,서울 강남구 삼성로 633,37.51629386,127.0511078
쓰레기통,논현2동 파출소 도로변,서울 강남구 논현동 89-13,37.51520778,127.0338471
쓰레기통,논현역 8번 출구 지하철역 입구,서울 서초구 잠원동 37-7,37.51158366,127.0205951
쓰레기통,농협 압구정역지점 정류소,서울 강남구 신사동 599,37.52420763,127.0287439
쓰레기통,뉴발란스 강남 플래그십스토어 도로변 ,서울 강남구 역삼동 820,37.49950783,127.0273161
쓰레기통,다비치안경 앞 가로변,서울 동작구 동작대로 101,37.48566776,126.9816748
쓰레기통,서원빌딩 앞 가로변,서울 동작구 만양로 112,37.51333627,126.944421
쓰레기통,다이소 앞 가로변,서울 동작구 남부순환로 2057,37.47693443,126.9773597
쓰레기통,다이소매장 앞 도로변,대치동940-3 다이소매장앞,37.4985192,127.0577493
쓰레기통,단풍나무집 강남점 정류소,서울특별시 강남구 역삼동 822-7,37.49897454,127.0295345
쓰레기통,달터공원 정류소,개포동 156 정류소,37.48536355,127.0610555
쓰레기통,대림로 12-1 (버스정류장 ID:20-208 옆),서울 동작구 대림로 12-1,37.48745978,126.9117698
쓰레기통,대림역삼아파트 앞 정류소,역삼2동 761-18 앞 정류소,37.49595515,127.0466571
쓰레기통,대림e편한세상 정류소,역삼동 755-4 앞 정류소,37.49877768,127.0498785
쓰레기통,대모산역 2번 출구 정류소,서울 강남구 영동대로 101 도로변,37.49156701,127.0718943
쓰레기통,대모산역 7번 출구 도로변,서울 강남구 개포동 196 도로변,37.48876187,127.0739923
쓰레기통,대모산역 도로변,서울 강남구 개포로 지하 522 도로변,37.49154533,127.0731686
쓰레기통,대방할인마트 앞 가로변,서울 동작구 등용로 123,37.5121047,126.9317236
쓰레기통,대신증권 청담WM센터 정류소,서울 강남구 영동대로 707,37.5207073,127.0559457
쓰레기통,대영부동산 도로변,서울 강남구 신사동 638-5,37.52877979,127.0352863
쓰레기통,대왕초교 앞 도로변,서울 강남구 세곡동 128-2 도로변,37.46444944,127.1071966
쓰레기통,대왕파출소 앞 정류소,서울 강남구 헌릉로 623 정류소,37.46517604,127.1073624
쓰레기통,대일부동산 정류소,서울 강남구 신사동 574-3,37.5253416,127.0253385
쓰레기통,대청역 3번 출구 앞 도로변,서울 강남구 일원동 700-6 도로변,37.49415453,127.0810754
쓰레기통,대청역 4번 출구 중동고교 정류소,서울 강남구 일원로 7,37.49371341,127.0806601
쓰레기통,대청역 6번 출구 앞 도로변,서울 강남구 일원동 700-5 앞 도로변,37.49342105,127.0787688
쓰레기통,대청역 정류소,일원동 700-9 정류소,37.49365901,127.0795604
쓰레기통,대치동 1001 정류소(버스  택시 등),대치동 1001 도로변,37.50742923,127.0645587
쓰레기통,대치동 1007 정류소,대치동 1007 도로변,37.50457179,127.0661722
쓰레기통,대치동 1008-3 도로변,대치동 1008-3 도로변,37.5030358,127.0670457
쓰레기통,대치동 1009-5 도로변,대치동 1009-5 도로변,37.5016419,127.0677665
쓰레기통,대치동 1019-14 정류소,대치동 1019-14 정류소,37.49804738,127.060896
쓰레기통,대치동 1020 정류소,대치동 1020 정류소,37.49838151,127.0615238
쓰레기통,대치동 1021-8 도로변,대치동 1021-8 도로변,37.49839458,127.0606444
쓰레기통,대치동 1022-1 도로변,대치동 1022-1 도로변,37.49787661,127.058633
쓰레기통,대치동 1024-4 도로변,대치동 1024-4 도로변,37.49700929,127.0562592
쓰레기통,대치동 50-8 도로변,대치동 50-8 도로변,37.49715457,127.0704576
쓰레기통,대치동 605 정류소,대치동 605 정류소,37.49402505,127.061344
쓰레기통,대치동 629 정류소,대치동 629 정류소,37.49286252,127.058611
쓰레기통,대치동 651 도로변,대치동 651 도로변,37.49220809,127.0573811
쓰레기통,대치동 889-33 도로변,대치동 889-33 도로변,37.50388908,127.0494468
쓰레기통,대치동 890-6 도로변,대치동 890-6 도로변,37.50485596,127.05154
쓰레기통,대치동 892 포스코빌딩 도로변,대치동 892 포스코빌딩 도로변,37.50579045,127.0561532
쓰레기통,대치동 892 포스코빌딩 정류소,대치동 892 포스코빌딩 정류소,37.50579045,127.0561532
쓰레기통,대치동 897 도로변,대치동 897 도로변,37.5028887,127.0500832
쓰레기통,대치동 903-29 정류소,대치동 903-29 정류소,37.50332246,127.058111
쓰레기통,대치동 913-16 도로변,대치동 913-16 도로변,37.50168942,127.058957
쓰레기통,대치동 938-23 도로변,대치동 938-23 도로변,37.4973175,127.0549678
쓰레기통,대치동 939-21 도로변,대치동 939-21 도로변,37.49781703,127.0564649
쓰레기통,대치동 941-20 도로변,대치동 941-20 도로변,37.498988,127.060071
쓰레기통,대치동 945-2 정류소,대치동945-2 정류소,37.5079642,127.0616039
쓰레기통,대치동 946-11 정류소,대치동 946-11 도로변,37.50787912,127.0630213
쓰레기통,대치동 947-7 정류소,대치동 947-7 도로변,37.50705589,127.0634813
쓰레기통,대치동 949-11 도로변,대치동 949-11 도로변,37.50523216,127.0644985
쓰레기통,대치동 957-13 도로변,대치동 957-13 도로변,37.5053014,127.0578093
쓰레기통,대치동 960-4 정류소,대치동 960-4 정류소,37.50357205,127.0588073
쓰레기통,대치동 961 도로변,대치동 961 도로변,37.50302328,127.0591098
쓰레기통,대치동 962-21 도로변,대치동 962-21 도로변,37.5015073,127.0599055
쓰레기통,대치동 966-5 정류소,대치동 966-5 정류소,37.50397457,127.0624157
쓰레기통,대치동 974-1 정류소,대치동 974-1 정류소,37.50084801,127.06013
쓰레기통,대치동 984-4 정류소,대치동 984-4 도로변,37.50181639,127.0663979
쓰레기통,대치동 984-6 도로변,대치동 984-6 도로변,37.50133862,127.0666567
쓰레기통,대치동 986-6 도로변,대치동 986-6 도로변,37.50032159,127.064499
쓰레기통,대치동 988-14 도로변,대치동 988-14 도로변,37.49939021,127.0611268
쓰레기통,대치동 989-1 도로변,대치동 989-1 도로변,37.49881276,127.0616426
쓰레기통,대치동 990-1 정류소,대치동 990-1 정류소,37.49941611,127.0634447
쓰레기통,대치동 993-2 도로변,대치동 993-2 도로변,37.50048025,127.0670928
쓰레기통,대치동 994-16 정류소,대치동 994-16 정류소,37.49835689,127.0682934
쓰레기통,대치동 994-8 도로변,대치동 994-8 도로변,37.49870084,127.0680684
쓰레기통,대치동 995-9 정류소,대치동 995-9 도로변,37.50794109,127.0642301
쓰레기통,대치동 997-4 도로변,대치동 997-4 도로변,37.50926546,127.0663826
쓰레기통,대치동 998 정류소,대치동 998 정류소,37.50936668,127.0670999
쓰레기통,대치동부센트레빌 101동 앞 정류소,서울 강남구 선릉로 206 동부센트레빌상가 122호 앞 정류소,37.49146442,127.0556417
쓰레기통,대치아파트 정류소,서울 강남구 개포로 613 도로변,37.49255359,127.0751317
쓰레기통,대치역 7번 출구 정류소,대치역 7번출구 정류소,37.492549,127.064017
쓰레기통,더라빌입구 도로변,서울 강남구 삼성동 73-1,37.5140631,127.0563664
쓰레기통,더본병원 앞 가로변,서울 동작구 동작대로 67,37.48254699,126.9814807
쓰레기통,더블유 수약국 정류소,서울 강남구 신사동 639-1,37.52871686,127.0360076
쓰레기통,더조은 병원 정류소,서울특별시 강남구 논현동 37-21,37.51484975,127.0300652
쓰레기통,덕산빌딩 정류소,서울 강남구 신사동 528-3,37.52292045,127.020579
쓰레기통,도곡동 106-1 도로변,도곡동 106-1 도로변,37.49269798,127.0535223
쓰레기통,도곡동 180-13 정류소,도곡동 180-13 정류소,37.48638174,127.0448536
쓰레기통,도곡동 411-20 정류소,도곡동 411-20 정류소,37.4859567,127.0454308
쓰레기통,도곡동 459-4 도로변,도곡동 459-4 도로변,37.48327817,127.0470561
쓰레기통,도곡동 463 도로변,도곡동 463 도로변,37.48661729,127.0471095
쓰레기통,도곡동 467-18 정류소,도곡동 467-18 정류소,37.48708066,127.0510529
쓰레기통,도곡동 518-10 도로변,도곡동 518-10 도로변,37.4824242,127.0430393
쓰레기통,도곡동 543-5 정류소,도곡동 543-5 정류소,37.49246822,127.0424292
쓰레기통,도곡동 545-7 정류소,도곡동 545-7 정류소,37.49145402,127.0388604
쓰레기통,도곡동 91 정류소,도곡동 91 정류소,37.49102412,127.0530474
쓰레기통,도곡동 943-2 정류소,도곡동 943-2 정류소,37.49037969,127.0328554
쓰레기통,도곡동 949-3 도로변,서울 강남구 강남대로 262,37.48696036,127.0334452
쓰레기통,도곡역 2번 출구 지하철역 입구,서울 강남구 대치동 600,37.49267607,127.0592122
쓰레기통,도곡역 4번 출구 앞 도로변,서울 강남구 언주로30길 57 도로변,37.48945731,127.0539647
쓰레기통,도곡지구대 도로변,역삼동 711 앞 도로변,37.50133276,127.0437177
쓰레기통,도시빌딩 정류소,서울 강남구 선릉로 714,37.51862798,127.0409742
쓰레기통,동남철물 정류소,서울 강남구 영동대로 613,37.51490246,127.0593499
쓰레기통,동서상가 정류소,서울 강남구 신사동 661-1,37.52792225,127.0389015
쓰레기통,동신빌딩 정류소,서울 강남구 논현동 17,37.5153929,127.0201914
쓰레기통,동양아파트 가로변 (버스정류장 ID:20-917 옆),서울 동작구 서달로 61,37.49960807,126.9601642
쓰레기통,동작구청앞 가로변 (버스정류장 ID:20-944),서울 동작구 국사봉길 42,37.49767976,126.9299796
쓰레기통,동작대로 239 가로변,서울 동작구 동작대로 239,37.49816652,126.9833949
쓰레기통,동작보건소 (버스정류장 ID:20-153 옆),서울 동작구 상도로 207,37.50557126,126.9418563
쓰레기통,동작상떼빌아파트 (버스정류장 ID:20-001),서울 동작구 시흥대로 606,37.48649178,126.9055262
쓰레기통,동작실버센터입구 (버스정류장 ID:20-251 옆),서울특별시 동작구 현충로 4,37.51307286,126.9565574
쓰레기통,동훈타운 도로변,서울 강남구 역삼동 702-19,37.50396509,127.0457456
쓰레기통,두산타워 도로변,서울 강남구 언주로 726,37.51938164,127.0351975
쓰레기통,등용로 40-2 (버스정류장 ID:20-593 옆),서울 동작구 등용로 40-2,37.50585079,126.9343589
쓰레기통,등용로 96 (버스정류장 ID:20-106 옆),서울 동작구 여의대방로44길 10,37.50736122,126.9260908
쓰레기통,라마다호텔 도로변,서울 강남구 봉은사로 410,37.51034745,127.045279
쓰레기통,라움 도로변,서울 강남구 신사동 637,37.52825971,127.0341458
쓰레기통,라움_LF서관 도로변,서울 강남구 신사동 617-3,37.5287676,127.0331986
쓰레기통,래미안강남힐즈 정류소,서울 강남구 자곡로 101 상가동 정류소,37.47265508,127.0958055
쓰레기통,래미안개나리 103동 앞 도로변,서울 강남구 역삼동 754 앞 도로변,37.49857122,127.0464186
쓰레기통,래미안그레이트아파트 정류소,서울 강남구 역삼동 762-3 앞 정류소,37.495165,127.0472446
쓰레기통,래미안블레스티지 223동 앞 정류소,서울 강남구 선릉로 8 223동 B3 앞 정류소,37.48005758,127.0641534
쓰레기통,로데오역 6번 출구 지하철역 입구,서울 강남구 신사동 664,37.52768957,127.0398542
쓰레기통,로뎀빌딩 도로변,서울 강남구 신사동 591-18,37.52178562,127.0284523
쓰레기통,롯데슈퍼 봉은사로점 정류소,서울 강남구 봉은사로 471,37.51272627,127.0512395
쓰레기통,루첸타워 도로변 ,테헤란로 510 루첸타워 정류소,37.50700154,127.0586561
쓰레기통,르노삼성자동차 강남지점 도로변,서울 강남구 언주로 551,37.50699313,127.0396545
쓰레기통,리버뷰오피스텔 정류소,서울 강남구 영동대로 721,37.52220444,127.0553049
쓰레기통,리엔파크 구립행복요양병원 앞 정류소,서울 강남구 헌릉로590길 60 정류소,37.46117663,127.1033226
쓰레기통,리엔파크 앞 도로변,세곡동 516 도로변,37.46378014,127.1044098
쓰레기통,리칭 도로변,서울 강남구 삼성로 520,37.5087063,127.0559201
쓰레기통,마린텍 도로변,서울 강남구 역삼동 628-14,37.50349963,127.0352294
쓰레기통,마세라티 강남전시장 정류소,서울 강남구 신사동 588-21,37.52083769,127.0305482
쓰레기통,매봉역 2번 출구 앞 지하철역 입구,서울 강남구 도곡동 179-2 앞,37.48699381,127.0466804
쓰레기통,못골마을 정류소,서울 강남구 자곡로 175 정류소,37.47427422,127.1026422
쓰레기통,무역센터 도로변,서울 강남구 영동대로 513,37.51182391,127.059159
쓰레기통,무역센터 위 (공항버스정류장 인근),서울 강남구 테헤란로 521,37.50919169,127.0608069
쓰레기통,문화빌딩 정류소,서울 강남구 역삼동 659-5,37.50539988,127.0351395
쓰레기통,미니스톱(청수빌딩) 정류소,서울 강남구 청담동 124-4,37.52479735,127.0491684
쓰레기통,미도아파트 201동 앞 정류소,서울 강남구 삼성로 150 정류소,37.49569534,127.0685647
쓰레기통,미도아파트 정류소,서울 강남구 삼성로 150 미도아파트 단지내상가 1층 173호 정류소,37.49569534,127.0685647
쓰레기통,미샤 앞 가로변,서울 동작구 동작대로 121,37.48747989,126.9818602
쓰레기통,미성2차 23동앞 도로변,서울 강남구 압구정동 396,37.52306546,127.0181038
쓰레기통,미켈란 107 도로변,서울 강남구 삼성동 107,37.51488588,127.0604124
쓰레기통,미켈란147 도로변,서울 강남구 봉은사로 516,37.51323652,127.0559958
쓰레기통,밀레 도로변,서울 강남구 청담동 91-2,37.52386862,127.041628
쓰레기통,바나프레소 세관사거리점 도로변,서울 강남구 논현동 115-13,37.51581026,127.0357432
쓰레기통,바른약국 도로변,서울 강남구 신사동 561-31,37.5190292,127.0256273
쓰레기통,바카라(313빌딩) 도로변,서울 강남구 신사동 630-31,37.52250054,127.0355297
쓰레기통,방배노인복지관 (버스정류장 ID: 20-020),서울 동작구 동작대로 43,37.480418,126.9814562
쓰레기통,배민라이더스 남부센터 도로변,서울특별시 강남구 역삼동 607-19,37.50492113,127.034658
쓰레기통,백두공인중개사 가로변,서울 동작구 만양로 6,37.5049819,126.9467885
쓰레기통,버거킹 청담점 정류소,서울 강남구 선릉로 812,37.52430491,127.0397249
쓰레기통,버버리 코리아 도로변,서울 강남구 청담동 98-8,37.52447929,127.0467443
쓰레기통,보테가라운지 도로변,서울 강남구 청담동 48,37.52394718,127.0478157
쓰레기통,봉은사 도로변,서울특별시 강남구 봉은사로 531,37.5158257,127.0577345
쓰레기통,봉은사역 1번 출구 도로변,서울 강남구 삼성동 77-20,37.51434204,127.059151
쓰레기통,봉현초등학교 (버스정류장 ID:20-167 옆),서울 관악구 성현로 117,37.49121654,126.9553519
쓰레기통,브라운성형외과의원 도로변,서울 강남구 신사동 582-10,37.52524241,127.0280597
쓰레기통,사당동우체국앞 (버스정류장 ID:20-019),서울 동작구 동작대로 75,37.48337906,126.9814111
쓰레기통,사당로 194 (버스정류장 ID:20-600 옆),서울 동작구 사당로 192,37.48516816,126.9695229
쓰레기통,사당로 24-1 (버스정류장 ID:20-169 옆),서울 동작구 사당로 24-1,37.49507152,126.9571326
쓰레기통,사당로 254 (버스정류장 ID:20-252 옆),서울특별시 동작구 사당로 258,37.4833506,126.9763821
쓰레기통,사당로 300 (버스정류장 ID: 20-184 옆),서울 동작구 사당로 300,37.48437909,126.9802816
쓰레기통,사당로 352 가로변,서울 동작구 상도로 352,37.49698948,126.9526144
쓰레기통,사당시장 (버스정류장 ID:20-180 옆),서울 동작구 사당로 227,37.48375843,126.9731992
쓰레기통,사당지구대 앞 가로변,서울 동작구 사당로 138,37.4889591,126.9657026
쓰레기통,사육신묘 앞 가로변,서울 동작구 노량진로 191,37.51345799,126.9494111
쓰레기통,삼거리 왕만두 가로변,서울 동작구 보라매로 101,37.49832802,126.9278528
쓰레기통,삼성 도로변,서울 강남구 논현동 94-2,37.52270158,127.0388747
쓰레기통,삼성2동주민센터 정류소,서울 강남구 삼성동 38-34,37.5112125,127.0459841
쓰레기통,삼성라테라스아파트 도로변,서울특별시 강남구 봉은사로 645,37.51554948,127.0657975
쓰레기통,삼성빌딩 정류소,서울 강남구 삼성동 170-8,37.51000177,127.0657189
쓰레기통,삼성생명 도로변,서울 강남구 대치동 890,37.50476544,127.0512515
쓰레기통,삼성아파트 101동 앞 정류소,서울 강남구 청담동 42,37.51791619,127.0427539
쓰레기통,삼성역 1번 출구앞 도로변,서울 강남구 대치동 995,37.50319041,127.0662506
쓰레기통,삼성역 6번 출구 지하철역 입구,서울 강남구 삼성동 111-8,37.51446311,127.0600977
쓰레기통,삼성역 7번 출구 지하철역 입구,서울 강남구 삼성동 111-8,37.51446311,127.0600977
쓰레기통,삼성역 8번 출구 지하철역 입구,서울 강남구 테헤란로 607,37.50951094,127.0640016
쓰레기통,삼성월드 아파트 앞 도로변,서울 강남구 삼성동 3-1,37.51743348,127.044098
쓰레기통,삼성의료원 정문 정류소,일원동 50,37.4886623,127.0859824
쓰레기통,삼성주유소 정류소,서울 강남구 삼성로 563,37.51188486,127.053593
쓰레기통,삼아약품 정류소,서울 강남구 청담동 80-18,37.5263824,127.0450951
쓰레기통,삼익뮤직프라자 정류소,서울 강남구 논현동 58-3,37.51413115,127.0291813
쓰레기통,삼익아파트 401동 앞 정류소,서울 강남구 수서동 707-4 정류소,37.48984868,127.0992865
쓰레기통,삼정호텔(차병원 건강검진센터) 정류소,서울 강남구 역삼동 604-7,37.5061226,127.0311803
쓰레기통,상도로 134 가로변,서울 동작구 상도로 134,37.50202508,126.9347761
쓰레기통,상도로 147 가로변,서울 동작구 상도로 78,37.49954498,126.9291481
쓰레기통,상도로 156 가로변,서울 동작구 상도로 156,37.50321477,126.936603
쓰레기통,상도로 16 가로변,서울 동작구 상도로 16,37.49971809,126.9223178
쓰레기통,상도로 181 가로변,서울 동작구 상도로 181,37.50495795,126.9388305
쓰레기통,상도로 357 (버스정류장 ID:20-166 옆),서울 동작구 상도로 357,37.49693976,126.9535408
쓰레기통,상도로 364-1 가로변 (버스정류장 ID:20-165 옆),서울 동작구 상도로 364-1,37.49607411,126.9534246
쓰레기통,상도로 383-1 가로변,서울 동작구 상도로 383-1,37.49493655,126.9551866
쓰레기통,상도로53길 41 (버스정류장 ID:20-244 옆),서울 동작구 상도로53길 41,37.50084913,126.9535372
쓰레기통,상도시장 (버스정류장 ID:20-160 옆),서울 동작구 상도로 290,37.50168115,126.9486088
쓰레기통,상도역 3번 출구 옆 가로변,서울 동작구 상도로 267,37.50357997,126.9476864
쓰레기통,상도치안센타 옆,서울 동작구 장승배기로 73,37.50416206,126.9391163
쓰레기통,상아아파트 2동 앞 정류소,서울 강남구 학동로 445,37.51909256,127.0496091
쓰레기통,상아아파트1동 도로변,서울 강남구 삼성동 189,37.5177086,127.0498648
쓰레기통,새마을금고 앞 가로변,서울 동작구 사당로 172,37.48649618,126.9678971
쓰레기통,서광아파트 101동앞 정류소,서울 강남구 삼성동 2,37.51702987,127.0427451
쓰레기통,서달로 158 가로변,서울 동작구 서달로 158,37.50706767,126.9623304
쓰레기통,서울 전통 육개장 정류소,서울 강남구 언주로 516,37.50476826,127.0420685
쓰레기통,서울공업고등학교 (버스정류장 ID:20-144 옆),서울 동작구 상도로 5,37.50031185,126.9212173
쓰레기통,서울세관 도로변,서울 강남구 논현동 71,37.51815167,127.034019
쓰레기통,서울의료원 정류소,서울 강남구 봉은사로114길 43,37.5130361,127.0666548
쓰레기통,서울제이에스병원 정류소,서울특별시 강남구 논현동 90-7,37.51552685,127.0346713
쓰레기통,선경아파트 5동앞 도로변,대치동 506 정류소,37.49212653,127.0625651
쓰레기통,선경아파트 정류소,서울 강남구 남부순환로 2936 정류소,37.49334891,127.0619166
쓰레기통,선릉역 10번 출구 지하철역 입구,서울 강남구 삼성동 141-32,37.50529874,127.0497948
쓰레기통,선릉역 1번 출구 방면 정류소,서울 강남구 대치동 1011,37.50716295,127.0580205
쓰레기통,선릉역 4번 출구 앞 정류소,서울 강남구 역삼1동,37.49541711,127.0332011
쓰레기통,선릉역 5번 출구 지하철역 입구,서울 강남구 역삼동 705-9,37.5046454,127.047444
쓰레기통,선릉역 6번 출구 지하철역 입구,서울 강남구 역삼동 705-27,37.5047896,127.0484605
쓰레기통,선릉역 7번 출구 지하철역 입구,서울 강남구 역삼동 802-31,37.50358287,127.0493526
쓰레기통,선릉역 8번 출구 지하철역 입구,서울 강남구 삼성동 141-36,37.50496208,127.0490373
쓰레기통,설빙 청담공원점 정류소,서울특별시 강남구 삼성로 725,37.52021814,127.0490704
쓰레기통,세곡동사거리 정류소,서울 강남구 세곡동 128-2 정류소,37.46444944,127.1071966
쓰레기통,세곡중학교 314주변 정류장 정류소,서울 강남구 자곡로3길 22 정류소,37.46997142,127.0910205
쓰레기통,세곡중학교건너편 공원앞 정류장 정류소,서울 강남구 자곡동 627 정류소,37.47039032,127.0923986
쓰레기통,세븐럭카지노 도로변,서울 강남구 테헤란로87길 58,37.51201518,127.0575397
쓰레기통,세븐일레븐 논현2호점 정류소,서울특별시 강남구 논현동 106-7,37.5172807,127.0357438
쓰레기통,세븐일레븐 앞 가로변,서울 동작구 사당로23길 2,37.48419216,126.9774055
쓰레기통,세븐일레븐 청담루나점 정류소,서울 강남구 청담동 72-3,37.52008137,127.0559516
쓰레기통,센트럴 아이파크 304동 앞 정류소,서울 강남구 삼성로 629,37.51578641,127.0513192
쓰레기통,소망부동산 정류소,서울 강남구 신사동 615-1,37.52805874,127.0310215
쓰레기통,송산빌딩 정류소,서울 강남구 역삼동 651,37.5073663,127.0351984
쓰레기통,수서동 724 정류소,수서동 724 정류소,37.48732679,127.1031401
쓰레기통,수서동익아파트 정류소,서울 강남구 광평로39길 3 앞 정류소,37.48576628,127.0972633
쓰레기통,수서역 1번 출구 엘리베이터 앞 정류소,서울 강남구 밤고개로 99,37.48541865,127.1045603
쓰레기통,수서역 5번 출구 정류소,서울 강남구 수서동 724-4 정류소,37.48683009,127.1027025
쓰레기통,수서역 정류소,서울 강남구 밤고개로 99 정류소,37.48541865,127.1045603
쓰레기통,수서역 SRT 안쪽 광장등 다중집합장소,서울 강남구 수서동 199-3 안쪽,37.48496691,127.1055458
쓰레기통,숙명여고 앞 정류소,서울 강남구 언주로 117 도로변,37.48646618,127.0503961
쓰레기통,숭실대별관앞 (버스정류장 ID:20-172 옆),서울 동작구 서달로 4,37.49510214,126.9612432
쓰레기통,쉐이크쉑 청담점 정류소,서울 강남구 신사동 652-16,37.523117,127.0375867
쓰레기통,스타벅스 논현힐탑점 정류소,서울 강남구 논현동 216-5,37.51157728,127.0321972
쓰레기통,스타벅스 앞 도로변,대치동 994-10 스타벅스 앞 도로변,37.49803664,127.0685043
쓰레기통,스타벅스 청담점 정류소,서울 강남구 청담동 52-1,37.5243533,127.0515878
쓰레기통,스포월드 정류소,서울 강남구 언주로98길 14,37.50484403,127.0428242
쓰레기통,신논현역 5번 출구 지하철역 입구,서울 강남구 역삼동 808-5,37.50420283,127.0251141
쓰레기통,신논현역(봉은사로 110) 정류소,서울 강남구 역삼동 601-1,37.50464598,127.0258131
쓰레기통,신대방동 702-9 (버스정류장 ID:20-207 옆),서울 동작구 신대방동 702-9,37.486855,126.9116057
쓰레기통,신동아리버파크 가로변,서울 동작구 만양로3길 20,37.50821071,126.9461189
쓰레기통,신사동사무소 도로변,서울 강남구 신사동 548-1,37.52399981,127.0227421
쓰레기통,신사역 1번 출구 지하철역 입구,서울 강남구 논현동 2-15,37.51637084,127.0212698
쓰레기통,신사역 2번 출구 지하철역 입구,서울 강남구 논현동 1,37.51586161,127.0201883
쓰레기통,신사역 3번 출구 지하철역 입구,서울 강남구 강남대로 606,37.51586783,127.0201564
쓰레기통,신사역 6번 출구 지하철역 입구,서울 강남구 강남대로 616,37.51685602,127.0197982
쓰레기통,신사역 7번 출구 지하철역 입구,서울 강남구 신사동 501-2,37.51677389,127.0200779
쓰레기통,신사역 8번 출구 지하철역 입구,서울 강남구 신사동 513-4,37.51701198,127.0208477
쓰레기통,신사중학교 정류소,서울 강남구 압구정동 410,37.52434139,127.021256
쓰레기통,신의주찹쌀순대 정류소,서울 강남구 봉은사로 636,37.51480565,127.0649071
쓰레기통,신한은행 (버스정류장 ID:20194 옆),서울 동작구 흑석로 108,37.50804485,126.9613439
쓰레기통,신한은행 도산대로지점 정류소,서울 강남구 논현동 92,37.52201619,127.0363492
쓰레기통,신한은행 영동지점 정류소,서울 강남구 논현동 84,37.51671379,127.0348147
쓰레기통,신현대아파트 103동 도로변,서울 강남구 압구정동 426,37.5262226,127.0244793
쓰레기통,심스빌딩 도로변,서울 강남구 테헤란로87길 39,37.51033999,127.0576427
쓰레기통,쌍용자동차 강남논현전시장 도로변,서울 강남구 논현동 238,37.51516262,127.0357469
쓰레기통,씨티약국 정류소,서울 강남구 강남대로 374,37.49628956,127.0290672
쓰레기통,아베뉴 주노 정류소,서울 강남구 삼성로 740,37.52151067,127.0493968
쓰레기통,아우디 도산대로전시장 도로변,서울 강남구 논현동 91-3,37.52138754,127.0349225
쓰레기통,아이케슬 정류소,서울 강남구 논현동 86-1,37.51528413,127.03074
쓰레기통,아크로갤러리 정류소,서울특별시 강남구 언주로 812,37.52296234,127.0338735
쓰레기통,아크로텔 정류소,서울 강남구 선릉로 524,37.50665507,127.0483862
쓰레기통,아크로힐스 103동 앞 도로변,서울 강남구 논현동 276-1,37.5095251,127.0389548
쓰레기통,안덕빌딩 정류소,서울특별시 강남구 역삼동 607-11,37.50577108,127.0342371
쓰레기통,알마타길 6 가로변 (버스정류장 ID:20-107),서울 동작구 알마타길 6,37.50985709,126.9249542
쓰레기통,압구정역 1번 출구 지하철역 입구,서울 강남구 압구정동 457,37.52785861,127.0293357
쓰레기통,압구정역 2번 출구 지하철역 입구,서울 강남구 논현로 876-2,37.52687443,127.0286791
쓰레기통,압구정역 3번 출구 지하철역 입구,서울 강남구 신사동 610-5,37.52611964,127.0287739
쓰레기통,압구정역 4번 출구 지하철역 입구,서울 강남구 신사동 581-6,37.52563324,127.0281632
쓰레기통,압구정역 5번 출구 지하철역 입구,서울 강남구 신사동 580-6,37.52665935,127.0279554
쓰레기통,압구정중고 정류소,서울 강남구 압구정동 458,37.5296596,127.0308298
쓰레기통,애플(페이토빌딩) 도로변,서울 강남구 논현동 5-1,37.51732568,127.0234198
쓰레기통,양녕로 177 (버스정류장 ID:20-892 옆),서울 동작구 양녕로 177,37.49715225,126.9429326
쓰레기통,양녕로 268 가로변,서울 동작구 양녕로 268,37.50349967,126.9488562
쓰레기통,양녕로 269-1 가로변,서울 동작구 양녕로 269-1,37.50403979,126.9487843
쓰레기통,"양재역 3,4번 출구사이 도로변",서울 강남구 도곡동 958-3,37.48460701,127.0350363
쓰레기통,언주역 3번 출구 지하철역 입구,서울 강남구 논현동 234-20,37.50788201,127.0340445
쓰레기통,에이스침대 도로변,서울 강남구 논현동 61,37.52023774,127.0307976
쓰레기통,여삼빌딩 도로변,서울 강남구 역삼동 648-23,37.49956436,127.0315093
쓰레기통,여송빌딩 도로변,서울 강남구 역삼동 650,37.50712213,127.0342633
쓰레기통,여의대방로 126 가로변,서울 동작구 여의대방로 126,37.49813971,126.9205554
쓰레기통,역삼 2하보도 앞,서울 강남구 테헤란로 301,37.50312564,127.0430688
쓰레기통,역삼동 706-1 정류소,서울 강남구 역삼동 706-1 정류소,37.50259159,127.0441024
쓰레기통,역삼동 718-2 정류소,서울 강남구 역삼동 718-2,37.50110753,127.0390216
쓰레기통,역삼동 734-17 도로변,역삼동 734-17 앞 도로변,37.49622062,127.0393969
쓰레기통,역삼동 735 정류소,서울 강남구 역삼동 735,37.49926788,127.0330422
쓰레기통,역삼동 785-15 도로변,역삼동 785-15 도로변,37.49430687,127.045912
쓰레기통,역삼동 788-32 정류소,역삼동 788-32 정류소,37.49300148,127.0417961
쓰레기통,역삼동 799-21 정류소,역삼동 799-21 정류소,37.49195328,127.0385427
쓰레기통,역삼동 826-22 정류소,서울 강남구 강남대로 368,37.49572837,127.029258
쓰레기통,역삼동 837 도로변,서울 강남구 강남대로 318,37.49156937,127.0311803
쓰레기통,역삼동 839-17 정류소,역삼동 839-17 정류소,37.48965617,127.0334441
쓰레기통,역삼동 747-24 정류소,역삼동747-24 정류소,37.49623887,127.0387016
쓰레기통,역삼역 1번 출구 도로변,역삼동 717 앞 도로변,37.50025539,127.0380869
쓰레기통,역삼역 3번 출구 앞 지하철역 입구,서울 강남구 역삼동 736-6,37.49999466,127.0354154
쓰레기통,역삼역 4번 출구 지하철역 입구,서울 강남구 테헤란로 143,37.50061921,127.0348978
쓰레기통,역삼역 5번 출구 지하철역 입구,서울 강남구 역삼동 642-19,37.5010235,127.0360825
쓰레기통,역삼역 8번 출구 지하철역 입구,서울 강남구 역삼동 679-5,37.50130716,127.0371725
쓰레기통,역삼자이아파트103동 앞 정류소,역삼동 711-3 앞 도로변,37.50044246,127.0444841
쓰레기통,연당빌딩 정류소,서울 강남구 삼성동 144-23,37.50684229,127.0551818
쓰레기통,영동가구(학동로106) 정류소,서울 강남구 논현동 121,37.51113838,127.0225959
쓰레기통,영동고교입구 정류소,서울 강남구 선릉로 742,37.52138901,127.0437393
쓰레기통,영동낙지(제일정형외과) 정류소,서울 강남구 영동대로 726,37.52282078,127.0561406
쓰레기통,영동전화국 정류소,서울 강남구 언주로98길 5,37.50517701,127.0421758
쓰레기통,온누리건강약국(온누리빌딩) 도로변,서울특별시 강남구 역삼동 667-16,37.50365971,127.0359027
쓰레기통,온누리제일그랜드약국 도로변,서울 강남구 논현동 200,37.50510727,127.0246711
쓰레기통,올리브영 앞 가로변,서울 동작구 시흥대로 658,37.49037497,126.9080767
쓰레기통,올리브영 가로변,서울 동작구 노량진로 114,37.51301138,126.9386122
쓰레기통,올리브영 세관사거리점 도로변,서울시 강남구 학동로235 영일빌딩,37.51558036,127.0350116
쓰레기통,올리브영 언주역점 정류소,서울 강남구 논현동 235-9,37.50793282,127.0349987
쓰레기통,왕세숫대야냉면 가로변,서울 동작구 보라매로 104,37.49843389,126.9283123
쓰레기통,우리은행 삼성중앙역지점 정류소,서울 강남구 삼성동 117-1,37.51247662,127.0524432
쓰레기통,우리은행 압구정로데오지점 도로변,서울 강남구 신사동 638-13,37.52858501,127.0343032
쓰레기통,우리은행 역삼동지점 도로변,서울특별시 강남구 역삼동 726,37.49907048,127.0383672
쓰레기통,우리은행 청담동금융센터 정류소,서울 강남구 영동대로 708,37.52105731,127.0571374
쓰레기통,우성아파트 (버스정류장 ID:20-927 옆),서울 동작구 여의대방로 8,37.49310363,126.9106015
쓰레기통,우성아파트 도로변,대치동 50-45 도로변,37.4984178,127.0695148
쓰레기통,윤당 아트홀 정류소,서울 강남구 언주로 844,37.52565512,127.0337298
쓰레기통,은곡마을 상업지구 정류소,서울 강남구 헌릉로569길 18 정류소,37.46727426,127.0999298
쓰레기통,은마아파트 1동앞 도로변,대치동 316 도로변,37.497418,127.065327
쓰레기통,은마아파트 2동 앞 정류소,서울 강남구 대치2동 정류소,37.495808,127.067019
쓰레기통,은마아파트 강남나무병원 앞 도로변,대치동 994-5 도로변,37.49927807,127.0676734
쓰레기통,은마아파트 정상어학원 앞 도로변,대치동 994-4 도로변,37.49941156,127.067582
쓰레기통,을지병원 도로변,서울 강남구 논현동 59,37.51941073,127.0285846
쓰레기통,이디야 커피숍 앞 가로변,서울 동작구 사당로 285,37.48464911,126.9791825
쓰레기통,이수역 (버스정류장 ID:20-027 옆),서울 서초구 동작대로 68,37.48258227,126.9823422
쓰레기통,이자카야찬 도로변,서울 강남구 논현동 221-14,37.51020236,127.0328303
쓰레기통,인터콘티넨탈호텔 정류소,서울 강남구 테헤란로 521,37.50919169,127.0608069
쓰레기통,일원동 613 도로변,서울 강남구 개포로110길 21 도로변,37.49095703,127.077324
쓰레기통,일원동 617 영희초등학교 정류소,서울 강남구 일원로3길 4 앞 정류장,37.49105058,127.081177
쓰레기통,일원동 643-5 도로변,일원동 643-5 도로변,37.49212007,127.0873689
쓰레기통,일원동 712-1 정류소,일원동 712-1 정류소,37.49217397,127.0878314
쓰레기통,일원본동 731 정류소,일원본동 731,37.48202022,127.0778494
쓰레기통,일원역 1번 출구 정류소,서울 강남구 일원동 717-1 정류소,37.48434979,127.083884
쓰레기통,일원역 3번 출구 정류소,서울 강남구 일원로 115 앞 정류소,37.4840224,127.0844597
쓰레기통,일원역 5번 출구 정류소,서울 강남구 일원동 733,37.48296293,127.0813428
쓰레기통,임페리얼 팔레스 정류소,서울시 강남구 언주로 640,37.51409813,127.0358848
쓰레기통,장승배기로 143-1 가로변,서울 동작구 장승배기로 143-1,37.51044817,126.9399431
쓰레기통,장승배기로 16-1 가로변,서울 동작구 장승배기로 16-1,37.5000022,126.9428848
쓰레기통,장승배기로 78 가로변,서울 동작구 장승배기로 78,37.50460583,126.9395109
쓰레기통,전기공사공제조합 도로변,서울 강남구 논현동 19-7,37.51311208,127.0208579
쓰레기통,정관장 강남구청역점 정류소,서울 강남구 논현동 241-1,37.51655254,127.0401392
쓰레기통,정금마을 (버스정류장 ID:22-033),서울 서초구 동작대로 188,37.49330077,126.9830939
쓰레기통,정금마을 방배경찰서 (버스정류장 ID:20-016),서울 강남구 강남대로 574,37.51310262,127.0208594
쓰레기통,조선일보뉴지엄 가로변,서울 동작구 현충로 124,37.50629298,126.9671455
쓰레기통,주공1단지 3동 앞 정류소,서울 강남구 개포동 141 정류소,37.47848937,127.0616144
쓰레기통,주공4단지 정류소,개포동 186-16 정류소,37.48926605,127.0683598
쓰레기통,주공5단지 정류소,서울 강남구 개포2동 정류소,37.48982611,127.0691336
쓰레기통,주공9단지 정류소,서울 강남구 영동대로 16 정류소,37.48870179,127.0748317
쓰레기통,주민센터 정류소,서울 강남구 밤고개로 286 정류소,37.46904926,127.1069125
쓰레기통,주작나무 한의원 앞 가로변,서울 동작구 상도로 94,37.49976294,126.9311525
쓰레기통,중앙하이츠빌 아파트 (버스정류장 ID:20-162 옆),서울 동작구 상도동 462-1,37.49871991,126.9509585
쓰레기통,진선여고사거리 정류소,역삼동 716 정류소,37.50243787,127.0493599
쓰레기통,진흥아파트 5동 앞 지하철역 입구,서울 강남구 청담동 73,37.51991782,127.0538684
쓰레기통,창일빌딩 정류소,서울 강남구 역삼동 682-7,37.50970835,127.0429137
쓰레기통,천수공원앞(사당역7번 출구) 가로변,서울 동작구 사당동 1043-16,37.47691663,126.9811547
쓰레기통,청기와 아트갤러리 도로변,서울 강남구 삼성로 755,37.52227131,127.0480641
쓰레기통,청담불한증막 정류소,서울 강남구 청담동 44-12,37.51835197,127.0459642
쓰레기통,청담빌딩 도로변,서울 강남구 청담동 52,37.52418045,127.0510511
쓰레기통,청담성모치과 정류소,서울 강남구 삼성로 767,37.52310582,127.0476074
쓰레기통,청담역 10번 출구 지하철역 입구,서울 강남구 청담동 75-1,37.5195064,127.0516805
쓰레기통,청담역 11번 출구 지하철역 입구,서울 강남구 청담동 75-1,37.5195064,127.0516805
쓰레기통,청담역 13번 출구 지하철역 입구,서울 강남구 청담동 77-4,37.52319948,127.0553539
쓰레기통,청담역 14번 출구 지하철역 입구,서울 강남구 청담동 77-4,37.52319948,127.0553539
쓰레기통,청담역 1번 출구 지하철역 입구,서울 강남구 삼성동 111-8,37.51446311,127.0600977
쓰레기통,청담역 2번 출구 지하철역 입구,서울 강남구 영동대로 647,37.51965028,127.0566188
쓰레기통,청담역 4번 출구 지하철역 입구,서울 강남구 삼성동 53-2,37.51871387,127.0521206
쓰레기통,청담역 6번 출구 지하철역 입구,서울 강남구 삼성동 52,37.5185913,127.0507368
쓰레기통,청담역 8번 출구 지하철역 입구,서울 강남구 청담동 77-72,37.51961322,127.0496883
쓰레기통,청담역 9번 출구 지하철역 입구,서울 강남구 청담동 76-4,37.51936319,127.0503294
쓰레기통,청호빌딩 정류소,서울 강남구 논현동 3-2,37.51673798,127.0218798
쓰레기통,총신대 (버스정류장 ID:20-174 옆),서울 동작구 사당로 138,37.4889591,126.9657026
쓰레기통,카페마스터 정류소,서울 강남구 논현동 238-10,37.51544406,127.0364371
쓰레기통,캠브리지빌딩 앞 정류소,서울 강남구 역삼동 825-18,37.4980842,127.0293892
쓰레기통,쿨마트 논현점 앞 정류소,서울 강남구 논현동 277-27,37.50952137,127.0401403
쓰레기통,타워팰리스 F동 앞 정류소,서울 강남구 언주로30길 57,37.48945731,127.0539647
쓰레기통,타이어T-스테이션 강남논현점 정류소,서울 강남구 봉은사로 229,37.50868774,127.0371736
쓰레기통,탐앤탐스 청담점 도로변,서울 강남구 도산대로89길 3,37.52505686,127.0501974
쓰레기통,태평백화점 앞 가로변,서울특별시 동작구 동작대로 115,37.48687637,126.9816652
쓰레기통,DB금융센터빌딩 정류소,서울 강남구 테헤란로 432,37.50588064,127.0548106
쓰레기통,토담골 정류소,서울 강남구 삼성로 766,37.52326037,127.0482058
쓰레기통,특허청 도로변,서울 강남구 역삼동 647-9,37.50008666,127.0329013
쓰레기통,포레힐호텔 정류소,서울 강남구 논현동 54-4,37.51210108,127.0236316
쓰레기통,포르쉐스튜디오 도로변,서울 강남구 청담동 3,37.52301767,127.0419961
쓰레기통,포스코주택전시관 정류소,서울시 강남구 언주로 832,37.52460391,127.0337803
쓰레기통,포이초등학교 앞 정류소,서울 강남구 개포로22길 87 정류소,37.47581662,127.0520457
쓰레기통,푸른마을아파트 정류소,서울 강남구 광평로 63 정오빌딩,37.48286093,127.0796263
쓰레기통,프리마호텔 도로변,서울 강남구 청담동 52-3,37.52428236,127.0522606
쓰레기통,피카소 라운지 도로변,서울 강남구 삼성로148길 10,37.52371079,127.048619
쓰레기통,하이마트 압구정점 도로변,서울 강남구 신사동 563-33,37.51998657,127.0273903
쓰레기통,학동역 1번 출구 지하철역 입구,서울 강남구 논현동 208-7,37.51434684,127.0329923
쓰레기통,학동역 2번 출구 지하철역 입구,서울 강남구 논현동 208,37.51396332,127.0318507
쓰레기통,학동역 3번 출구 지하철역 입구,서울 강남구 학동로 204,37.51378159,127.0311955
쓰레기통,학동역 4번 출구 지하철역 입구,서울 강남구 논현동 129-1,37.51365617,127.0304904
쓰레기통,학동역 5번 출구 지하철역 입구,서울 강남구 논현동 129-1,37.51365617,127.0304904
쓰레기통,학동역 6번 출구 지하철역 입구,서울 강남구 논현동 58-9,37.51409481,127.0300173
쓰레기통,학동역 7번 출구 지하철역 입구,서울 강남구 논현동 58-7,37.51422846,127.0302621
쓰레기통,학동역 9번 출구 지하철역 입구,서울 강남구 논현동 88-9,37.51470354,127.0320414
쓰레기통,학여울역 1번 출구 앞 지하철역 입구,서울 강남구 개포동 184-2 지하철역 입구,37.49217837,127.0723083
쓰레기통,한국기술센터 정류소,서울 강남구 역삼동 701-7,37.50329797,127.0436473
쓰레기통,한국산업은행 강남지점 정류소,서울 강남구 영동대로 421,37.50700127,127.0635321
쓰레기통,한국자산관리공사 정류소,서울 강남구 도곡동 949-3,37.48718204,127.0333566
쓰레기통,한국전력 앞 지하철 옆,서울 동작구 동작대로 19,37.47830883,126.9809585
쓰레기통,한국촌 도로변,서울시 강남구 테헤란로87길 57,37.5112868,127.0571911
쓰레기통,한국통신사업자 정류소,서울 강남구 삼성동 44-9,37.51161279,127.0474155
쓰레기통,한성모터스(학빌딩) 도로변,서울 강남구 신사동 629-24,37.521751,127.0333574
쓰레기통,한성주창장앞 가로변,서울 동작구 만양로 112,37.51333627,126.944421
쓰레기통,한솔아파트 101동 앞 도로변,서울 강남구 삼성동 4-1,37.51768191,127.0454537
쓰레기통,한양수자원아파트  정류소,서울 강남구 자곡로 260 정류소,37.47656344,127.1117521
쓰레기통,한양수자원아파트 건너편 (버스정류장 ID: 23-393),서울 강남구 밤고개로5길 46-13 정류소,37.47858843,127.1114094
쓰레기통,한양아파트 35동 도로변,서울특별시 강남구 압구정동 489,37.52915614,127.0381666
쓰레기통,한양아파트 61동 정류소,서울특별시 강남구 압구정동 485,37.52957754,127.0367659
쓰레기통,한전앞 도로변,서울 강남구 영동대로 512,37.51193015,127.0646402
쓰레기통,한티근린공원 정류소,서울 강남구 삼성로 221 정류소,37.49670327,127.0617511
쓰레기통,한티역 3번 출구앞 정류소,서울 강남구 대치1동,37.49326011,127.0568202
쓰레기통,한티역 7번 출구 앞 정류소,서울 강남구 역삼2동,37.49596391,127.0468392
쓰레기통,해박난치과 가로변,서울 동작구 노량진로 152-1,37.5134559,126.9428572
쓰레기통,해성1빌딩 정류소 ,테헤란로 504 해성1빌딩 정류소,37.50662682,127.0573469
쓰레기통,허브프라자 도로변,서울 강남구 논현동 241-3,37.51668735,127.0405907
쓰레기통,현대아파트 (버스정류장 ID:20-007),서울 동작구 노량진로 48,37.51300948,126.9310925
쓰레기통,현대아파트 101동 도로변,서울 강남구 압구정동 426,37.5262226,127.0244793
쓰레기통,현대아파트 79동 도로변,서울 강남구 압구정동 449,37.52951167,127.0271203
쓰레기통,현대아파트 84동 정류소,서울특별시 강남구 압구정동 458,37.5296596,127.0308298
쓰레기통,현대아파트 91동 도로변,서울특별시 강남구 압구정동 482,37.52992788,127.034867
쓰레기통,현대아파트 92동앞 정류소,서울 강남구 압구정로 309,37.53192115,127.0355385
쓰레기통,현대아파트 정류소,서울 강남구 일원동 614 정류소,37.49096812,127.0777194
쓰레기통,현대아파트유한양행 (버스정류장 ID:20-008),서울 동작구 노량진로 53,37.51394028,126.9343584
쓰레기통,현대오트론 도로변,서울 강남구 테헤란로113길 12,37.51129299,127.0665296
쓰레기통,현충로 108 가로변,서울 동작구 현충로 108,37.50735772,126.9653423
쓰레기통,현충로 111 (버스정류장 ID:20-127 옆),서울 동작구 현충로 105,37.50783722,126.9656085
쓰레기통,현충로 151 (버스정류장 ID:20-130 옆),서울 동작구 현충로 151,37.50677865,126.9689342
쓰레기통,홈플러스 익스프레스 삼성2점 정류소,서울 강남구 삼성로 548,37.5106173,127.055031
쓰레기통,효사정 앞 (버스정류장 ID:20-124 옆),서울 동작구 현충로2길 4,37.51147936,126.9604498
쓰레기통,휘문중 고등학교 정류소,서울 강남구 역삼로 541 정류소,37.50528945,127.0619939
쓰레기통,효사정 앞 (버스정류장 ID:20-123 옆),서울 동작구 현충로2길 4,37.51147936,126.9604498
쓰레기통,흑석로 106-5 가로변,서울 동작구 흑석로 106-5,37.50789163,126.9614593
쓰레기통,흑석역 4번 출구 옆,서울 동작구 흑석동 4,37.50850223,126.9640091
쓰레기통,ABC마트 GS강남본점 도로변,서울 강남구 강남대로 430,37.50096626,127.0266717
쓰레기통,BK타워 도로변,서울 강남구 삼성로 547,37.51034965,127.0543738
쓰레기통,CJ성형외과 도로변,서울 강남구 청담동 78-16,37.52741375,127.0409776
쓰레기통,GM대우 정류소,서울 강남구 영동대로 340,37.50506456,127.0658301
쓰레기통,GS25 봉은사점 정류소,서울 강남구 삼성동 77-23,37.51426165,127.0586577
쓰레기통,GS빌딩 정류소,서울 강남구 역삼동 679,37.50209421,127.0367982
쓰레기통,IBK기업은행 앞 가로변,서울 동작구 동작대로 27,37.47892328,126.9812457
쓰레기통,K타워 도로변,서울 강남구 테헤란로 513,37.50802541,127.0588878
쓰레기통,KB우준타워 도로변,서울 강남구 삼성동 144-29,37.50720878,127.0560353
쓰레기통,KEB하나은행 역삼역금융센터 정류소,서울 강남구 테헤란로 207,37.50171193,127.0387144
쓰레기통,KS병원 정류소,서울 강남구 선릉로 571,37.50931819,127.0439442
쓰레기통,KT 신사점 정류소,서울 강남구 신사동 514-10,37.51761962,127.0223373
쓰레기통,LGU+ 강남구청역점 정류소,서울 강남구 선릉로 635 1층,37.5131553,127.0424731
쓰레기통,LGU+ 언주역점 정류소,서울 강남구 논현동 192-6,37.50790961,127.0333086
쓰레기통,LGU+ K버스정류장 IDC논현센터 정류소,서울 강남구 언주로 616,37.51104663,127.0369839
쓰레기통,LH푸르지오 201동 정류장 정류소,서울 강남구 자곡로 21 정류소,37.46734665,127.0932645
쓰레기통,NK타워 정류소,서울 강남구 역삼동 681-16,37.50910673,127.0406518
쓰레기통,SSG푸드마켓 청담점 정류소,서울 강남구 청담동 4-1,37.52339387,127.0436576
쓰레기통,T-WORLD(HOSIG 타워) 정류소,서울 강남구 논현동 118-16,37.51706105,127.0399245
쓰레기통,Tag Heuer 도로변,서울 강남구 선릉로 828,37.5258359,127.0402337
쓰레기통,YBM어학원 강남센터 도로변,서울 강남구 역삼동 820-8,37.49922315,127.0275749
애견동반식당,3공간 사당,서울특별시 동작구 사당동 1019-21,37.48171743,126.9734458
애견동반식당,까사밀,서울특별시 강남구 신사동 527-2,37.52199016,127.0195489
애견동반식당,까폼,서울특별시 강남구 신사동 655-15,37.52488248,127.0379956
애견동반식당,꽁티드툴레아,서울특별시 강남구 신사동 646-21,37.52554614,127.0369069
애견동반식당,다운타우너 청담,서울특별시 강남구 신사동 666-25,37.52404815,127.0385581
애견동반식당,달마시안,서울특별시 강남구 신사동 634-17,37.5262391,127.0345201
애견동반식당,더블트러블 유니온,서울특별시 강남구 신사동 523-28,37.5215204,127.0210011
애견동반식당,돈페페,서울특별시 동작구 사당동 1031-4,37.50387998,126.9427754
애견동반식당,레브 바,서울특별시 강남구 신사동 663 1층,37.52685061,127.0380416
애견동반식당,롤린우드,서울특별시 강남구 청담동 20-29,37.52182475,127.0427248
애견동반식당,마사 타코,서울특별시 강남구 신사동 524-29,37.52200536,127.0217415
애견동반식당,모스가든,서울특별시 강남구 논현동 30-6,37.51664326,127.0283689
애견동반식당,모터시티바이매니멀강남점,서울특별시 강남구 역삼동 817-33 2층,37.50057341,127.0278957
애견동반식당,문어랑 상록점,"서울특별시 강남구 역삼동 699 1층,2층",37.50544403,127.0425311
애견동반식당,미엘,서울특별시 강남구 청담동 94-3 퍼즐하우스,37.5252622,127.0436161
애견동반식당,바 밀라,서울특별시 강남구 청담동 12-12,37.52318688,127.0465505
애견동반식당,바이슨버거,서울특별시 동작구 대방동 395-18 1층,37.48102624,126.9813086
애견동반식당,뷰티그로서리,서울특별시 강남구 신사동 648-16,37.5236803,127.0367634
애견동반식당,비단콤마,서울특별시 동작구 상도동 535,37.48052779,126.9806809
애견동반식당,비스트로상수,서울특별시 강남구 개포동 1228-5,37.47533101,127.0474715
애견동반식당,세바,서울특별시 강남구 신사동 629-1 1층,37.5217165,127.0316868
애견동반식당,슈퍼막셰,서울특별시 강남구 신사동 514-18 1층 슈퍼막셰 커피앤델리 신사역점,37.51721789,127.0212252
애견동반카페,스케줄청담,서울특별시 강남구 청담동 90-19,37.52467039,127.0427084
애견동반식당,스페인클럽 가로수본점,서울특별시 강남구 신사동 524-30,37.52190749,127.0218596
애견동반식당,신사890,서울특별시 강남구 신사동 514-21,37.5175639,127.0215688
애견동반식당,쏭타이 역삼점,서울특별시 강남구 역삼동 664-32,37.50571566,127.0402754
애견동반식당,아트나인&잇나인,서울특별시 동작구 사당동 147-53,37.50002508,126.9258456
애견동반식당,압구정제주집,서울특별시 강남구 신사동 588-12,37.5215078,127.0311082
애견동반식당,어썸로즈,서울특별시 강남구 신사동 520-7,37.50368315,127.0274629
애견동반식당,에드엣,서울특별시 강남구 신사동 524-23 지하1층,37.5220664,127.0215044
애견동반식당,에이치피 서울,서울특별시 강남구 역삼동 812-13,37.52793877,127.0377149
애견동반식당,오마주,서울특별시 동작구 사당동 1029-37 1층,37.48476096,126.9815205
애견동반식당,올데이피자 서비스,서울특별시 강남구 신사동 559-10,37.52015268,127.0259666
애견동반식당,워커비,서울특별시 강남구 신사동 652-11 지하1층,37.52359037,127.0379419
애견동반식당,위트앤미트 강남점,서울특별시 강남구 역삼동 616-4 1층,37.50283847,127.0273938
애견동반식당,윌로뜨,서울특별시 강남구 청담동 19-17,37.5227356,127.0433975
애견동반식당,자매의 부엌,서울특별시 강남구 신사동 520-7,37.52092069,127.0220031
애견동반식당,조인바이트,서울특별시 강남구 삼성동 36-11,37.51148422,127.0446365
애견동반식당,청담오후,서울특별시 강남구 청담동 40-32 2층,37.51820265,127.0411433
애견동반식당,카페드로우지,"서울특별시 강남구 신사동 642-8 4층, 5층 루프탑",37.5265946,127.0367487
애견동반식당,크라이치즈버거 삼성역점,서울특별시 강남구 대치동 996-17 미래에셋벤처타워 B1층,37.50905181,127.0652863
애견동반식당,큰돈가 신사점,서울특별시 서초구 잠원동 14-13,37.51595631,127.0184645
애견동반식당,킹박스,서울특별시 강남구 논현동 21-16 1층,37.51403608,127.0212116
애견동반식당,틴틴 강남점,서울특별시 강남구 역삼동 810-4,37.50353956,127.0261445
애견동반식당,핀치브런치바,서울특별시 강남구 신사동 523-36,37.52148046,127.0205907
애견동반식당,호쿠모쿠,서울특별시 강남구 신사동 660-14 1층,37.47942561,126.9808261
애견동반식당,FIREBELL 대치본점,서울특별시 강남구 대치동 908-17,37.50037883,127.0522275
애견동반식당,Ginos NY Pizza 압구정점,서울특별시 강남구 신사동 655-3 1층 지노스피자,37.52539404,127.0383601
애견동반식당,SADDLER HAUS,서울특별시 강남구 신사동 561-8,37.5194075,127.0249294
애견동반식당,UPPERWEST,서울특별시 강남구 신사동 542-4,37.51986521,127.0236118
애견카페,감성놀이터,서울특별시 동작구 상도로58길 4,37.49591989,126.9530412
애견카페,강아지똥 애견카페,서울특별시 강남구 논현동 170,37.50833194,127.0272192
애견카페,개러리아 삼성본점,서울특별시 강남구 삼성동 9-16,37.51446268,127.0429012
애견카페,글램독 그라운드 삼성점,서울특별시 강남구 삼성동 152-69 1층 글램독 그라운드 삼성점,37.51058781,127.0564197
애견카페,다독인더 시티,서울특별시 강남구 역삼동 608-23,37.50458082,127.0340633
애견카페,두젠틀,서울특별시 강남구 역삼동 667-10,37.50420081,127.0360744
애견카페,두젠틀 장승배기역점,서울특별시 동작구 상도동 26-27,37.50542949,126.9428786
애견카페,드도그카페,서울특별시 강남구 삼성동 150-19 2층 드도그카페,37.51085194,127.0548083
애견카페,멍돌핀 애견카페,서울특별시 강남구 논현동 170-28 2층 멍돌핀,37.50796415,127.0272421
애견카페,반려문화,서울특별시 강남구 논현동 85-13,37.51593792,127.033303
애견카페,봉브라더스,서울특별시 강남구 논현동 181-12 2층,37.50734962,127.0262621
애견카페,어야가자애견카페,서울특별시 강남구 역삼동 662-1,37.50659656,127.0397902
애견카페,웰컴댕댕,서울특별시 동작구 대방동 17-20 2층 웰컴댕댕,37.50909678,126.9323357
애견카페,전설의 강아지,서울특별시 강남구 논현동 265-23,37.51202869,127.0411711
애견카페,카페더왈츠,서울특별시 강남구 역삼동 834-8,37.49413412,127.034306
애견카페,펫타리움,"서울특별시 강남구 청담동 68-7 6, 7층",37.52246104,127.0551202
애견동반카페,602dessert,서울특별시 강남구 일원동 677-11,37.49157156,127.082715
애견동반카페,가배도 신논현,서울특별시 강남구 역삼동 601-12,37.50409681,127.0258516
애견동반카페,겟썸커피,서울특별시 강남구 역삼동 812-3,37.50308349,127.0272513
애견동반카페,고미제과,서울특별시 동작구 노량진동 123-37 1층 102호 고미제과,37.49023063,126.9822167
애견동반카페,구테로이테,서울특별시 강남구 논현동 112-19,37.5176549,127.0396514
애견동반카페,기역니은디귿제빵점,서울특별시 동작구 신대방동 360-224 ㄱㄴㄷ제빵점,37.5042264,126.9488173
애견동반카페,까사디도노,서울특별시 강남구 청담동 16-2 1층,37.52129088,127.0444903
애견동반카페,뇸,서울특별시 강남구 역삼동 773-10 1층,37.49667191,127.0447662
애견동반카페,누누커피,서울특별시 강남구 삼성동 159 오크우드호텔 코엑스 별관 지하2층,37.51252119,127.0588193
애견동반카페,뉴욕라츠오베이글스,서울특별시 강남구 신사동 642-6,37.52679348,127.0366368
애견동반카페,니블스,서울특별시 강남구 신사동 551-11,37.52224519,127.0237091
애견동반카페,달콤가든,서울특별시 강남구 논현동 78-9,37.51639606,127.0317449
애견동반카페,더데이즈커피,서울특별시 강남구 도곡동 413-3,37.48483046,127.0429648
애견동반카페,더스노우 논현점,서울특별시 강남구 논현동 185-1,37.50709575,127.026504
애견동반카페,더스노우 대치본점,서울특별시 강남구 대치동 907-1 코람벤처타운 1층,37.50123316,127.0510035
애견동반카페,더포트,서울특별시 강남구 청담동 130-23 1층,37.52523549,127.0555169
애견동반카페,덴시티커피,서울특별시 강남구 청담동 7-4,37.52299982,127.0470473
애견동반카페,라브리크 서울,서울특별시 강남구 역삼동 619-10 라브리크,37.50238452,127.0279156
애견동반카페,레스트어와일,서울특별시 동작구 신대방동 344-136,37.48524677,126.9792536
애견동반카페,레옹앤마틸다,서울특별시 강남구 신사동 555-25 102호,37.52146658,127.0248456
애견동반카페,르와조 역삼,서울특별시 강남구 역삼동 640-21 1층,37.50243731,127.035042
애견동반카페,마츄피츄,서울특별시 강남구 논현동 254-22,37.51367271,127.0410235
애견동반카페,맘마미아,서울특별시 강남구 신사동 645-26,37.52591245,127.0346435
애견동반카페,머치커피,서울특별시 동작구 사당동 1026-35,37.48366455,126.9761453
애견동반카페,먼셀커피 이수점,서울특별시 동작구 사당동 324-16 1층,37.50273873,126.9401456
애견동반카페,메이킷 카페,서울특별시 강남구 삼성동 127-9,37.5096833,127.0546947
애견동반카페,메종 르자당,서울특별시 강남구 신사동 650-14 2층,37.5233067,127.0360151
애견동반카페,멜로우무드,서울특별시 동작구 사당동 1034-15,37.50038088,126.9265562
애견동반카페,미지수카페,서울특별시 동작구 사당동 188-1,37.50424657,126.9230482
애견동반카페,바이엠,서울특별시 동작구 상도동 32-6,37.47837497,126.9793351
애견동반카페,바잇미 신사점,서울특별시 강남구 신사동 525-22,37.52257371,127.0212563
애견동반카페,보트커피,서울특별시 동작구 상도동 184-4,37.48181964,126.9811121
애견동반카페,본디,서울특별시 동작구 대방동 340-3 1층 스타트업매장 4호,37.51086729,126.9456632
애견동반카페,블랙루머 BLACK RUMOR,서울특별시 강남구 신사동 660-17 A동 105호,37.52797461,127.0372004
애견동반카페,빠삐용빵,서울특별시 강남구 논현동 32-18 k동 1층,37.51746623,127.0272496
애견동반카페,삼삼공데이,서울특별시 강남구 역삼동 642-6,37.50169496,127.0359769
애견동반카페,서브젝트 커피,서울특별시 동작구 상도동 28-26 1층 서브젝트 커피,37.48638671,126.9796861
애견동반카페,수목금토 카페,서울특별시 강남구 논현동 25-6,37.51453007,127.0254849
애견동반카페,시너리,서울특별시 동작구 사당로25가길 1,37.5031597,126.9486131
애견동반카페,식물학,서울특별시 강남구 신사동 516-16 1층 카페 식물학,37.51837577,127.0216662
애견동반카페,아가젤라또,서울특별시 강남구 신사동 564-3 1층,37.52168728,127.0270878
애견동반카페,아이엠씨,서울특별시 강남구 청담동 118-17 네이처 포엠 지하1층,37.52528414,127.0472387
애견동반카페,앳더스크,서울특별시 동작구 사당동 141-44 앳더스크,37.48627371,126.9796381
애견동반카페,어반81,서울특별시 강남구 삼성동 46-8 101호.,37.51262081,127.0485796
애견동반카페,에이엔아더,서울특별시 강남구 논현동 116-7 지상 1층,37.51625015,127.0374303
애견동반카페,오티움 로스터리,서울특별시 동작구 상도1동 622 1층,37.49021603,126.9645656
애견동반카페,올디너리모먼트,서울특별시 강남구 도곡동 517-8,37.4840127,127.0441897
애견동반카페,요거티 강남본점,서울특별시 강남구 역삼동 840-7 1층,37.49149083,127.0364387
애견동반카페,요굿트,서울특별시 동작구 사당동 141-45,37.49788434,126.931459
애견동반카페,우디집 도산점,서울특별시 강남구 신사동 644-22,37.52654923,127.036
애견동반카페,우부래도,서울특별시 동작구 상도1동 666-3,37.49386078,126.9264692
애견동반카페,웻커피 신사,서울특별시 강남구 신사동 507-3 1층,37.51993479,127.0200559
애견동반카페,위드버터,서울특별시 동작구 사당동 1033-2,37.50682432,126.9596482
애견동반카페,윌비 가로수길점,서울특별시 강남구 신사동 517-4,37.51926304,127.0209051
애견동반카페,유별커피,서울특별시 동작구 사당동 262-21,37.50490427,126.9225826
애견동반카페,이수카페 사이,서울특별시 동작구 사당동 1006-20,37.5096318,126.9622042
애견동반카페,이웃집통통이 로데오점,서울특별시 강남구 신사동 662-9 1층,37.52731457,127.0387734
애견동반카페,자매커피,서울특별시 동작구 사당동 1040-2,37.48012052,126.9795027
애견동반카페,잔디속에있다고상상을해,서울특별시 동작구 상도1동 691 2층,37.49593683,126.9530503
애견동반카페,정다방,서울특별시 강남구 역삼동 725-51,37.4992586,127.0400252
애견동반카페,정월,서울특별시 강남구 역삼동 618-21,37.50367135,127.0285949
애견동반카페,천장지구,서울특별시 강남구 논현동 93-15 2층,37.52218026,127.0383499
애견동반카페,카페 노티드 청담,서울특별시 강남구 신사동 654-9,37.52419536,127.0383026
애견동반카페,카페 레꼴뜨,서울특별시 강남구 역삼동 681-58,37.50914391,127.0425544
애견동반카페,카페 헷지,서울특별시 동작구 상도동 308-9 1층 카페헷지,37.51240174,126.9280368
애견동반카페,카페브르브르,서울특별시 동작구 사당동 141-48,37.47882654,126.9792442
애견동반카페,카페알케미,서울특별시 강남구 일원동 646-4,37.49126698,127.0872778
애견동반카페,카페알코브,서울특별시 동작구 대방동 391-357,37.48398156,126.9797334
애견동반카페,카페엔바이콘 논현점,서울특별시 강남구 논현동 4-18,37.51717881,127.0229738
애견동반카페,카페오터스,서울특별시 강남구 삼성동 121-20 1층 101호,37.51051523,127.0530261
애견동반카페,카페왓송,서울특별시 동작구 사당동 1028-13,37.48156097,126.9724557
애견동반카페,카페익스큐즈미,서울특별시 동작구 대방동 399-7,37.50151176,126.9533917
애견동반카페,카페키츠네,서울특별시 강남구 신사동 535-13,37.51957912,127.0227842
애견동반카페,카페플랫,서울특별시 동작구 대방동 385-22 1층 101호,37.50397999,126.9446477
애견동반카페,카페희희,서울특별시 동작구 상도동 256-1 B06호,37.48558802,126.9724031
애견동반카페,커피휘엘,서울특별시 강남구 논현동 4-21,37.51699651,127.0235837
애견동반카페,키쏘커피 파랑헌,서울특별시 강남구 신사동 646-15,37.52564498,127.0366116
애견동반카페,키키젤라또,서울특별시 동작구 사당동 1044-18 1층,37.49756646,126.9239384
애견동반카페,타우너스 에스프레소 바,서울특별시 강남구 역삼동 725-57 타우너스 1층,37.49843964,127.0398558
애견동반카페,토크넌센스,서울특별시 동작구 흑석동 223-15,37.50420611,126.9459367
애견동반카페,파니모들,서울특별시 동작구 사당동 79-3 원옥빌딩 1층,37.4772484,126.9791189
애견동반카페,페인팅룸,서울특별시 강남구 신사동 644-13 은미르빌딩 B1 페인팅룸,37.52662809,127.0356309
애견동반카페,펠트커피 도산공원점,서울특별시 강남구 신사동 645-21,37.52563948,127.0354354
애견동반카페,한남베르그 도산,서울특별시 강남구 신사동 647-14 1층 105호,37.52501832,127.0369621
애견동반카페,헤븐리가든,서울특별시 동작구 상도동 29-2,37.47898878,126.9780969
애견동반카페,홍차가게 청담,서울특별시 강남구 삼성동 57-11 1층,37.51894561,127.0546973
애견동반카페,히뽀1997,서울특별시 동작구 본동 126-125,37.49861503,126.9336055
애견동반카페,BELOW SINSA,서울특별시 강남구 신사동 551-11 1층 101호,37.48061069,126.9790984
애견동반카페,Coffee Writer,서울특별시 강남구 신사동 567-17,37.52344312,127.0268423
애견동반카페,Small Batch Seoul,서울특별시 강남구 신사동 634-8,37.52599343,127.0340854
공원,광평근린공원,서울특별시 강남구 수서동 산10-1,37.4880445,127.092184
공원,국립현충원,서울특별시 동작구 사당2동 산41-2,37.4998621,126.9736849
공원,까치산근린공원,서울특별시 동작구 사당동 산32,37.4845836,126.9640735
공원,노량진공원,서울특별시 동작구 여의대방로 15-45(여의대방로36길 71),37.510234,126.928607
공원,대모산도시자연공원,서울특별시 강남구 광평로10길 30-71(대모산공원),37.4796489,127.0809639
공원,도곡근린공원,서울특별시 강남구 도곡동 산31-1,37.4903127,127.0450338
공원,도산근린공원,서울특별시 강남구 도산대로45길 20(도산공원),37.5246752,127.0350296
공원,보라매근린공원,서울특별시 동작구 여의대방로20길 33(보라매공원),37.492333,126.918289
공원,봉은공원,서울특별시 강남구 삼성동 75,37.5139026,127.0554961
공원,사육신공원,서울특별시 동작구 노량진로 191,37.5137049,126.948636
공원,삼일근린공원,서울특별시 동작구 사당동 산24-17,37.4860183,126.9743686
공원,상도근린공원,서울특별시 동작구 성대로6사길 27-6(상도공원),37.492299,126.9385469
공원,율현공원,서울특별시 강남구 율현동 밤고개로24길(율현동 56),37.472332,127.115594
공원,청담근린공원,서울특별시 강남구 청담동 66,37.5213259,127.052453
